<?xml version="1.0" encoding="UTF-8"?>
<gpx xmlns="http://www.topografix.com/GPX/1/1" xmlns:gpxtpx="http://www.garmin.com/xmlschemas/TrackPointExtension/v1" xmlns:xsi="http://www.w3.org/2001/XMLSchema-instance" xsi:schemaLocation="http://www.topografix.com/GPX/1/1 http://www.topografix.com/GPX/1/1/gpx.xsd" version="1.1" creator="gpx.py -- https://github.com/tkrajina/gpxpy">
  <trk>
    <name>gpx from keep</name>
    <type>Run</type>
    <trkseg>
      <trkpt lat="32.05196800123854" lon="118.80369648418088">
        <ele>9.152136001735926</ele>
        <time>2026-09-07T10:24:32Z</time>
      </trkpt>
      <trkpt lat="32.05196800123854" lon="118.80369648418088">
        <ele>9.194410476833582</ele>
        <time>2026-09-07T10:24:35Z</time>
      </trkpt>
      <trkpt lat="32.05197204739779" lon="118.80372253510701">
        <ele>8.235707481391728</ele>
        <time>2026-09-07T10:25:11Z</time>
      </trkpt>
      <trkpt lat="32.0518876457334" lon="118.80407724241523">
        <ele>8.769444664008915</ele>
        <time>2026-09-07T10:25:26Z</time>
      </trkpt>
      <trkpt lat="32.051950958622086" lon="118.8042485752515">
        <ele>9.020463188178837</ele>
        <time>2026-09-07T10:25:32Z</time>
      </trkpt>
      <trkpt lat="32.05201212967842" lon="118.80433874806005">
        <ele>9.197495658881962</ele>
        <time>2026-09-07T10:25:35Z</time>
      </trkpt>
      <trkpt lat="32.05216231194476" lon="118.80442390289727">
        <ele>6.127171714790165</ele>
        <time>2026-09-07T10:25:42Z</time>
      </trkpt>
      <trkpt lat="32.05239946464556" lon="118.80448099425789">
        <ele>8.780015190131962</ele>
        <time>2026-09-07T10:25:51Z</time>
      </trkpt>
      <trkpt lat="32.05261367711494" lon="118.80457516128891">
        <ele>8.988755424506962</ele>
        <time>2026-09-07T10:26:00Z</time>
      </trkpt>
      <trkpt lat="32.05291890997722" lon="118.80466932009813">
        <ele>5.717618186958134</ele>
        <time>2026-09-07T10:26:12Z</time>
      </trkpt>
      <trkpt lat="32.053069999782835" lon="118.80470136985802">
        <ele>9.292615135200322</ele>
        <time>2026-09-07T10:26:18Z</time>
      </trkpt>
      <trkpt lat="32.05321595159112" lon="118.80465526496754">
        <ele>7.556641777046025</ele>
        <time>2026-09-07T10:26:24Z</time>
      </trkpt>
      <trkpt lat="32.05334274315473" lon="118.80451998503588">
        <ele>8.80115242768079</ele>
        <time>2026-09-07T10:26:30Z</time>
      </trkpt>
      <trkpt lat="32.053389602952365" lon="118.80443380997602">
        <ele>8.048104484565556</ele>
        <time>2026-09-07T10:26:33Z</time>
      </trkpt>
      <trkpt lat="32.05341643214787" lon="118.80433260712512">
        <ele>8.674325187690556</ele>
        <time>2026-09-07T10:26:36Z</time>
      </trkpt>
      <trkpt lat="32.05338308207725" lon="118.80413622179192">
        <ele>8.843430717475712</ele>
        <time>2026-09-07T10:26:42Z</time>
      </trkpt>
      <trkpt lat="32.053318847790486" lon="118.80400997834002">
        <ele>-2.1035125656053424</ele>
        <time>2026-09-07T10:26:48Z</time>
      </trkpt>
      <trkpt lat="32.05324970155711" lon="118.80393483639226">
        <ele>7.054608543403447</ele>
        <time>2026-09-07T10:26:51Z</time>
      </trkpt>
      <trkpt lat="32.053181627110185" lon="118.80390077544828">
        <ele>9.041600425727665</ele>
        <time>2026-09-07T10:26:54Z</time>
      </trkpt>
      <trkpt lat="32.05284040295187" lon="118.80381563888993">
        <ele>8.999322135932744</ele>
        <time>2026-09-07T10:27:06Z</time>
      </trkpt>
      <trkpt lat="32.05246916173131" lon="118.80372449337041">
        <ele>7.65176506806165</ele>
        <time>2026-09-07T10:27:21Z</time>
      </trkpt>
      <trkpt lat="32.05223492679694" lon="118.80361930779593">
        <ele>9.699525077827275</ele>
        <time>2026-09-07T10:27:30Z</time>
      </trkpt>
      <trkpt lat="32.0521559126557" lon="118.80362131900026">
        <ele>9.583264549262822</ele>
        <time>2026-09-07T10:27:33Z</time>
      </trkpt>
      <trkpt lat="32.05203497266951" lon="118.80367142871202">
        <ele>6.09546395111829</ele>
        <time>2026-09-07T10:27:39Z</time>
      </trkpt>
      <trkpt lat="32.05196210786015" lon="118.80375860706692">
        <ele>8.72717018891126</ele>
        <time>2026-09-07T10:27:42Z</time>
      </trkpt>
      <trkpt lat="32.05191627707384" lon="118.8038618146689">
        <ele>8.571274955756962</ele>
        <time>2026-09-07T10:27:45Z</time>
      </trkpt>
      <trkpt lat="32.05188262017047" lon="118.80406321517206">
        <ele>8.30968972016126</ele>
        <time>2026-09-07T10:27:51Z</time>
      </trkpt>
      <trkpt lat="32.05190481199761" lon="118.80417042495911">
        <ele>7.881642539985478</ele>
        <time>2026-09-07T10:27:54Z</time>
      </trkpt>
      <trkpt lat="32.05203716325828" lon="118.8043547774943">
        <ele>8.624119956977665</ele>
        <time>2026-09-07T10:28:00Z</time>
      </trkpt>
      <trkpt lat="32.052114274970684" lon="118.8044088775432">
        <ele>8.394242485053837</ele>
        <time>2026-09-07T10:28:03Z</time>
      </trkpt>
      <trkpt lat="32.052417466907364" lon="118.80447999061826">
        <ele>7.52493401337415</ele>
        <time>2026-09-07T10:28:15Z</time>
      </trkpt>
      <trkpt lat="32.05269870833771" lon="118.80458216738599">
        <ele>4.089978416450322</ele>
        <time>2026-09-07T10:28:28Z</time>
      </trkpt>
      <trkpt lat="32.05298892206746" lon="118.80466730968834">
        <ele>8.03753395844251</ele>
        <time>2026-09-07T10:28:40Z</time>
      </trkpt>
      <trkpt lat="32.053128972564735" lon="118.80467831869525">
        <ele>7.945054252631962</ele>
        <time>2026-09-07T10:28:46Z</time>
      </trkpt>
      <trkpt lat="32.05319495217612" lon="118.80465827286207">
        <ele>8.351968009956181</ele>
        <time>2026-09-07T10:28:49Z</time>
      </trkpt>
      <trkpt lat="32.05331282061281" lon="118.80456808314119">
        <ele>7.411317070014775</ele>
        <time>2026-09-07T10:28:55Z</time>
      </trkpt>
      <trkpt lat="32.05337360639419" lon="118.8044378193853">
        <ele>7.577779014594853</ele>
        <time>2026-09-07T10:29:01Z</time>
      </trkpt>
      <trkpt lat="32.05340226109837" lon="118.80423641811397">
        <ele>8.0058300094679</ele>
        <time>2026-09-07T10:29:07Z</time>
      </trkpt>
      <trkpt lat="32.053296728641286" lon="118.80390048152483">
        <ele>7.421883781440556</ele>
        <time>2026-09-07T10:29:16Z</time>
      </trkpt>
      <trkpt lat="32.05325171246868" lon="118.80394084806822">
        <ele>8.93591042328626</ele>
        <time>2026-09-07T10:29:19Z</time>
      </trkpt>
      <trkpt lat="32.053199597990755" lon="118.80388173625232">
        <ele>8.433877189643681</ele>
        <time>2026-09-07T10:29:22Z</time>
      </trkpt>
      <trkpt lat="32.053016482257895" lon="118.80383866813298">
        <ele>7.923917015083134</ele>
        <time>2026-09-07T10:29:31Z</time>
      </trkpt>
      <trkpt lat="32.052947468624566" lon="118.80383967645028">
        <ele>8.706029136665165</ele>
        <time>2026-09-07T10:29:34Z</time>
      </trkpt>
      <trkpt lat="32.05270527704105" lon="118.80376054272016">
        <ele>7.725747306831181</ele>
        <time>2026-09-07T10:29:40Z</time>
      </trkpt>
      <trkpt lat="32.05239408581326" lon="118.80369043318854">
        <ele>7.493226249702275</ele>
        <time>2026-09-07T10:29:55Z</time>
      </trkpt>
      <trkpt lat="32.05232598710957" lon="118.80364234477668">
        <ele>7.3056270675733685</ele>
        <time>2026-09-07T10:29:58Z</time>
      </trkpt>
      <trkpt lat="32.052153941787374" lon="118.80363835269992">
        <ele>6.7428218917921185</ele>
        <time>2026-09-07T10:30:07Z</time>
      </trkpt>
      <trkpt lat="32.0520270039565" lon="118.80369046692233">
        <ele>8.203999717719853</ele>
        <time>2026-09-07T10:30:14Z</time>
      </trkpt>
      <trkpt lat="32.05190620163932" lon="118.80381973263772">
        <ele>7.725747306831181</ele>
        <time>2026-09-07T10:30:20Z</time>
      </trkpt>
      <trkpt lat="32.051871422238925" lon="118.80395099467667">
        <ele>8.642617424018681</ele>
        <time>2026-09-07T10:30:26Z</time>
      </trkpt>
      <trkpt lat="32.05188473589286" lon="118.80412934561477">
        <ele>8.716599662788212</ele>
        <time>2026-09-07T10:30:32Z</time>
      </trkpt>
      <trkpt lat="32.05198014004051" lon="118.80434877083287">
        <ele>5.080830772407353</ele>
        <time>2026-09-07T10:30:38Z</time>
      </trkpt>
      <trkpt lat="32.05205527231576" lon="118.80441489487116">
        <ele>7.881642539985478</ele>
        <time>2026-09-07T10:30:41Z</time>
      </trkpt>
      <trkpt lat="32.05231746563259" lon="118.80449202363417">
        <ele>7.902779777534306</ele>
        <time>2026-09-07T10:30:53Z</time>
      </trkpt>
      <trkpt lat="32.05258665706902" lon="118.80456714787555">
        <ele>8.214566429145634</ele>
        <time>2026-09-07T10:31:05Z</time>
      </trkpt>
      <trkpt lat="32.0528327820472" lon="118.80460720475153">
        <ele>7.902779777534306</ele>
        <time>2026-09-07T10:31:11Z</time>
      </trkpt>
      <trkpt lat="32.05305300828102" lon="118.80470838534303">
        <ele>7.609486778266728</ele>
        <time>2026-09-07T10:31:21Z</time>
      </trkpt>
      <trkpt lat="32.05314302131348" lon="118.80470436911611">
        <ele>7.493226249702275</ele>
        <time>2026-09-07T10:31:24Z</time>
      </trkpt>
      <trkpt lat="32.0532719482768" lon="118.80464624192804">
        <ele>7.807656486518681</ele>
        <time>2026-09-07T10:31:30Z</time>
      </trkpt>
      <trkpt lat="32.05338771111996" lon="118.80449593323982">
        <ele>7.546071250922978</ele>
        <time>2026-09-07T10:31:36Z</time>
      </trkpt>
      <trkpt lat="32.05341341398075" lon="118.80432258757122">
        <ele>8.412739952094853</ele>
        <time>2026-09-07T10:31:42Z</time>
      </trkpt>
      <trkpt lat="32.053394101999864" lon="118.80414624058041">
        <ele>7.945054252631962</ele>
        <time>2026-09-07T10:31:48Z</time>
      </trkpt>
      <trkpt lat="32.05336995516798" lon="118.80406508245694">
        <ele>7.620057304389775</ele>
        <time>2026-09-07T10:31:51Z</time>
      </trkpt>
      <trkpt lat="32.05328776061294" lon="118.80396389022728">
        <ele>8.203999717719853</ele>
        <time>2026-09-07T10:31:57Z</time>
      </trkpt>
      <trkpt lat="32.053176643434966" lon="118.80391079566893">
        <ele>7.913350303657353</ele>
        <time>2026-09-07T10:32:00Z</time>
      </trkpt>
      <trkpt lat="32.05312364557858" lon="118.8039188163505">
        <ele>5.508877952583134</ele>
        <time>2026-09-07T10:32:03Z</time>
      </trkpt>
      <trkpt lat="32.052881455658614" lon="118.80384068449183">
        <ele>5.989773948676884</ele>
        <time>2026-09-07T10:32:15Z</time>
      </trkpt>
      <trkpt lat="32.052807360748105" lon="118.80379560243423">
        <ele>8.394242485053837</ele>
        <time>2026-09-07T10:32:18Z</time>
      </trkpt>
      <trkpt lat="32.05247812021139" lon="118.80369944322085">
        <ele>6.103390892036259</ele>
        <time>2026-09-07T10:32:33Z</time>
      </trkpt>
      <trkpt lat="32.052198922246916" lon="118.80362131504774">
        <ele>8.610909660346806</ele>
        <time>2026-09-07T10:32:45Z</time>
      </trkpt>
      <trkpt lat="32.05205402738812" lon="118.80370048416664">
        <ele>6.187943656928837</ele>
        <time>2026-09-07T10:32:51Z</time>
      </trkpt>
      <trkpt lat="32.051954236747086" lon="118.80383375587272">
        <ele>7.995259483344853</ele>
        <time>2026-09-07T10:32:57Z</time>
      </trkpt>
      <trkpt lat="32.051902635110025" lon="118.80406922520608">
        <ele>8.122086723335087</ele>
        <time>2026-09-07T10:33:06Z</time>
      </trkpt>
      <trkpt lat="32.05191889552894" lon="118.80421651478771">
        <ele>7.3056270675733685</ele>
        <time>2026-09-07T10:33:09Z</time>
      </trkpt>
      <trkpt lat="32.051950070349626" lon="118.80431270220264">
        <ele>7.828797538764775</ele>
        <time>2026-09-07T10:33:12Z</time>
      </trkpt>
      <trkpt lat="32.05200518937716" lon="118.80437381812213">
        <ele>5.656846244819462</ele>
        <time>2026-09-07T10:33:15Z</time>
      </trkpt>
      <trkpt lat="32.052130329325735" lon="118.80443793362241">
        <ele>3.3897754745557904</ele>
        <time>2026-09-07T10:33:21Z</time>
      </trkpt>
      <trkpt lat="32.05245549465402" lon="118.80449100896614">
        <ele>7.860501487739384</ele>
        <time>2026-09-07T10:33:37Z</time>
      </trkpt>
      <trkpt lat="32.05276674979898" lon="118.80459719094368">
        <ele>7.52493401337415</ele>
        <time>2026-09-07T10:33:52Z</time>
      </trkpt>
      <trkpt lat="32.0530739357442" lon="118.80466429591175">
        <ele>6.0848934249952435</ele>
        <time>2026-09-07T10:34:07Z</time>
      </trkpt>
      <trkpt lat="32.053189908957656" lon="118.80463422560868">
        <ele>6.481236656196415</ele>
        <time>2026-09-07T10:34:13Z</time>
      </trkpt>
      <trkpt lat="32.05331877111049" lon="118.80453902497919">
        <ele>7.683469017036259</ele>
        <time>2026-09-07T10:34:19Z</time>
      </trkpt>
      <trkpt lat="32.053409420089224" lon="118.80432659587052">
        <ele>7.556641777046025</ele>
        <time>2026-09-07T10:34:28Z</time>
      </trkpt>
      <trkpt lat="32.05341014226051" lon="118.80416728069412">
        <ele>7.73367424774915</ele>
        <time>2026-09-07T10:34:34Z</time>
      </trkpt>
      <trkpt lat="32.05333186988627" lon="118.80402099890208">
        <ele>7.65176506806165</ele>
        <time>2026-09-07T10:34:40Z</time>
      </trkpt>
      <trkpt lat="32.0532286602518" lon="118.80391379681788">
        <ele>8.026967247016728</ele>
        <time>2026-09-07T10:34:46Z</time>
      </trkpt>
      <trkpt lat="32.05295343162093" lon="118.80381763245249">
        <ele>5.02798577118665</ele>
        <time>2026-09-07T10:35:01Z</time>
      </trkpt>
      <trkpt lat="32.05264624647156" lon="118.80375052840714">
        <ele>7.923917015083134</ele>
        <time>2026-09-07T10:35:13Z</time>
      </trkpt>
      <trkpt lat="32.05235801860805" lon="118.80365636944116">
        <ele>6.5657894210889935</ele>
        <time>2026-09-07T10:35:25Z</time>
      </trkpt>
      <trkpt lat="32.05221492581562" lon="118.80362131357704">
        <ele>7.369038780219853</ele>
        <time>2026-09-07T10:35:31Z</time>
      </trkpt>
      <trkpt lat="32.05214692282676" lon="118.80362833362759">
        <ele>7.715176780708134</ele>
        <time>2026-09-07T10:35:34Z</time>
      </trkpt>
      <trkpt lat="32.05202102350807" lon="118.80370249114532">
        <ele>7.213147361762822</ele>
        <time>2026-09-07T10:35:40Z</time>
      </trkpt>
      <trkpt lat="32.05193224752474" lon="118.80384277566954">
        <ele>2.9194500045850873</ele>
        <time>2026-09-07T10:35:46Z</time>
      </trkpt>
      <trkpt lat="32.05189351090154" lon="118.8039990875608">
        <ele>7.139161308296025</ele>
        <time>2026-09-07T10:35:52Z</time>
      </trkpt>
      <trkpt lat="32.05190378206625" lon="118.80415339138666">
        <ele>6.80359383393079</ele>
        <time>2026-09-07T10:35:58Z</time>
      </trkpt>
      <trkpt lat="32.051931931650095" lon="118.80423555123751">
        <ele>7.754811485297978</ele>
        <time>2026-09-07T10:36:02Z</time>
      </trkpt>
      <trkpt lat="32.05206219684159" lon="118.8043708069327">
        <ele>7.567212303169072</ele>
        <time>2026-09-07T10:36:08Z</time>
      </trkpt>
      <trkpt lat="32.05242345598139" lon="118.80447297616956">
        <ele>5.915787895210087</ele>
        <time>2026-09-07T10:36:26Z</time>
      </trkpt>
      <trkpt lat="32.05272272946938" lon="118.80459118306412">
        <ele>7.202576835639775</ele>
        <time>2026-09-07T10:36:41Z</time>
      </trkpt>
      <trkpt lat="32.05300294448918" lon="118.80467833027473">
        <ele>7.358472068794072</ele>
        <time>2026-09-07T10:36:53Z</time>
      </trkpt>
      <trkpt lat="32.05312296947311" lon="118.80467731725813">
        <ele>6.555218894965947</ele>
        <time>2026-09-07T10:36:59Z</time>
      </trkpt>
      <trkpt lat="32.05327984657625" lon="118.80458712392611">
        <ele>6.5657894210889935</ele>
        <time>2026-09-07T10:37:08Z</time>
      </trkpt>
      <trkpt lat="32.05339036861568" lon="118.8042995440831">
        <ele>5.508877952583134</ele>
        <time>2026-09-07T10:37:17Z</time>
      </trkpt>
      <trkpt lat="32.053374088808646" lon="118.80414123251869">
        <ele>5.604001243598759</ele>
        <time>2026-09-07T10:37:23Z</time>
      </trkpt>
      <trkpt lat="32.053280779991155" lon="118.80397591459659">
        <ele>5.561722953803837</ele>
        <time>2026-09-07T10:37:32Z</time>
      </trkpt>
      <trkpt lat="32.0532346912384" lon="118.8039308298648">
        <ele>-1.120585243217647</ele>
        <time>2026-09-07T10:37:35Z</time>
      </trkpt>
      <trkpt lat="32.05313665719555" lon="118.80392382503739">
        <ele>8.73773690033704</ele>
        <time>2026-09-07T10:37:39Z</time>
      </trkpt>
      <trkpt lat="32.05301849839031" lon="118.80384768572479">
        <ele>7.223714073188603</ele>
        <time>2026-09-07T10:37:48Z</time>
      </trkpt>
      <trkpt lat="32.05275332954747" lon="118.80378458568168">
        <ele>7.73367424774915</ele>
        <time>2026-09-07T10:38:00Z</time>
      </trkpt>
      <trkpt lat="32.052427096653524" lon="118.80369243410033">
        <ele>7.23428459931165</ele>
        <time>2026-09-07T10:38:15Z</time>
      </trkpt>
      <trkpt lat="32.05225099474502" lon="118.80365637927646">
        <ele>7.1708690719679</ele>
        <time>2026-09-07T10:38:24Z</time>
      </trkpt>
      <trkpt lat="32.05218302308921" lon="118.80368143483115">
        <ele>7.07574959564954</ele>
        <time>2026-09-07T10:38:27Z</time>
      </trkpt>
      <trkpt lat="32.05207998096774" lon="118.80367042260353">
        <ele>-0.6740405960008502</ele>
        <time>2026-09-07T10:38:30Z</time>
      </trkpt>
      <trkpt lat="32.05198408141937" lon="118.80374056952172">
        <ele>7.546071250922978</ele>
        <time>2026-09-07T10:38:33Z</time>
      </trkpt>
      <trkpt lat="32.051923200204506" lon="118.80381672515126">
        <ele>6.972699363715947</ele>
        <time>2026-09-07T10:38:36Z</time>
      </trkpt>
      <trkpt lat="32.05187752652979" lon="118.80401011078601">
        <ele>7.07574959564954</ele>
        <time>2026-09-07T10:38:42Z</time>
      </trkpt>
      <trkpt lat="32.05187979243865" lon="118.80416241141414">
        <ele>6.103390892036259</ele>
        <time>2026-09-07T10:38:48Z</time>
      </trkpt>
      <trkpt lat="32.0519179862377" lon="118.80426861792077">
        <ele>7.453591545112431</ele>
        <time>2026-09-07T10:38:51Z</time>
      </trkpt>
      <trkpt lat="32.05202721179134" lon="118.80438383593783">
        <ele>4.380627830512822</ele>
        <time>2026-09-07T10:38:57Z</time>
      </trkpt>
      <trkpt lat="32.05208727420096" lon="118.80441188597736">
        <ele>7.453591545112431</ele>
        <time>2026-09-07T10:39:00Z</time>
      </trkpt>
      <trkpt lat="32.05225134930881" lon="118.80443391456355">
        <ele>7.65176506806165</ele>
        <time>2026-09-07T10:39:07Z</time>
      </trkpt>
      <trkpt lat="32.05236946846818" lon="118.80448700892762">
        <ele>7.1285945968702435</ele>
        <time>2026-09-07T10:39:13Z</time>
      </trkpt>
      <trkpt lat="32.05257858516647" lon="118.80452706915264">
        <ele>7.694039543159306</ele>
        <time>2026-09-07T10:39:22Z</time>
      </trkpt>
      <trkpt lat="32.05273074002077" lon="118.80459619226488">
        <ele>6.156235893256962</ele>
        <time>2026-09-07T10:39:28Z</time>
      </trkpt>
      <trkpt lat="32.052912833201894" lon="118.80462623516316">
        <ele>5.112538536079228</ele>
        <time>2026-09-07T10:39:37Z</time>
      </trkpt>
      <trkpt lat="32.05303794877879" lon="118.80467632308117">
        <ele>4.3911983566358685</ele>
        <time>2026-09-07T10:39:43Z</time>
      </trkpt>
      <trkpt lat="32.05309596345722" lon="118.80467731973944">
        <ele>7.10745354462415</ele>
        <time>2026-09-07T10:39:46Z</time>
      </trkpt>
      <trkpt lat="32.05322193012075" lon="118.8046422385711">
        <ele>6.898717124946415</ele>
        <time>2026-09-07T10:39:52Z</time>
      </trkpt>
      <trkpt lat="32.05331178532751" lon="118.80454804350023">
        <ele>4.5999385910108685</ele>
        <time>2026-09-07T10:39:58Z</time>
      </trkpt>
      <trkpt lat="32.0533336728094" lon="118.80448090841966">
        <ele>7.263348777778447</ele>
        <time>2026-09-07T10:40:01Z</time>
      </trkpt>
      <trkpt lat="32.05334112514372" lon="118.80416628505569">
        <ele>5.530019004829228</ele>
        <time>2026-09-07T10:40:13Z</time>
      </trkpt>
      <trkpt lat="32.053310875681845" lon="118.80402701270054">
        <ele>5.646279533393681</ele>
        <time>2026-09-07T10:40:19Z</time>
      </trkpt>
      <trkpt lat="32.053218649304206" lon="118.80390878785606">
        <ele>6.763959129340947</ele>
        <time>2026-09-07T10:40:25Z</time>
      </trkpt>
      <trkpt lat="32.052898450732876" lon="118.80383567305431">
        <ele>6.8247310714796185</ele>
        <time>2026-09-07T10:40:40Z</time>
      </trkpt>
      <trkpt lat="32.05283344670349" lon="118.8038416908789">
        <ele>5.791604240424931</ele>
        <time>2026-09-07T10:40:43Z</time>
      </trkpt>
      <trkpt lat="32.05264223687187" lon="118.80374551890735">
        <ele>5.791604240424931</ele>
        <time>2026-09-07T10:40:52Z</time>
      </trkpt>
      <trkpt lat="32.05231999795222" lon="118.80364935913072">
        <ele>6.763959129340947</ele>
        <time>2026-09-07T10:41:07Z</time>
      </trkpt>
      <trkpt lat="32.052186930009086" lon="118.80362732797936">
        <ele>6.7111141281202435</ele>
        <time>2026-09-07T10:41:14Z</time>
      </trkpt>
      <trkpt lat="32.052106924343526" lon="118.80363434913359">
        <ele>5.614571769721806</ele>
        <time>2026-09-07T10:41:17Z</time>
      </trkpt>
      <trkpt lat="32.05203996682316" lon="118.80366742036374">
        <ele>5.759896476753056</ele>
        <time>2026-09-07T10:41:20Z</time>
      </trkpt>
      <trkpt lat="32.051949077093674" lon="118.80374257668551">
        <ele>6.555218894965947</ele>
        <time>2026-09-07T10:41:26Z</time>
      </trkpt>
      <trkpt lat="32.051903289863034" lon="118.80387083364263">
        <ele>7.432454307563603</ele>
        <time>2026-09-07T10:41:32Z</time>
      </trkpt>
      <trkpt lat="32.05190060148816" lon="118.80405018779659">
        <ele>6.763959129340947</ele>
        <time>2026-09-07T10:41:38Z</time>
      </trkpt>
      <trkpt lat="32.051938863279645" lon="118.8041954713492">
        <ele>6.113961418159306</ele>
        <time>2026-09-07T10:41:44Z</time>
      </trkpt>
      <trkpt lat="32.052051159380476" lon="118.80435076827432">
        <ele>6.576356132514775</ele>
        <time>2026-09-07T10:41:50Z</time>
      </trkpt>
      <trkpt lat="32.05217027520512" lon="118.80440185850736">
        <ele>6.4706661300733685</ele>
        <time>2026-09-07T10:41:56Z</time>
      </trkpt>
      <trkpt lat="32.05236138785234" lon="118.8044419203319">
        <ele>4.589368064887822</ele>
        <time>2026-09-07T10:42:05Z</time>
      </trkpt>
      <trkpt lat="32.05266867885624" lon="118.80456914431323">
        <ele>6.909283836372197</ele>
        <time>2026-09-07T10:42:15Z</time>
      </trkpt>
      <trkpt lat="32.05294589318475" lon="118.804656291769">
        <ele>6.2936336593702435</ele>
        <time>2026-09-07T10:42:21Z</time>
      </trkpt>
      <trkpt lat="32.05312899362334" lon="118.8046903425589">
        <ele>4.1190425949171185</ele>
        <time>2026-09-07T10:42:27Z</time>
      </trkpt>
      <trkpt lat="32.053258917312895" lon="118.80463021131618">
        <ele>7.086316307075322</ele>
        <time>2026-09-07T10:42:33Z</time>
      </trkpt>
      <trkpt lat="32.053303829127834" lon="118.80457409588942">
        <ele>5.812741477973759</ele>
        <time>2026-09-07T10:42:36Z</time>
      </trkpt>
      <trkpt lat="32.05338640796689" lon="118.80432259005276">
        <ele>6.364976127631962</ele>
        <time>2026-09-07T10:42:48Z</time>
      </trkpt>
      <trkpt lat="32.05336613246002" lon="118.80416728473826">
        <ele>5.519448478706181</ele>
        <time>2026-09-07T10:42:54Z</time>
      </trkpt>
      <trkpt lat="32.0532547654749" lon="118.80397090710031">
        <ele>6.637131889350712</ele>
        <time>2026-09-07T10:43:03Z</time>
      </trkpt>
      <trkpt lat="32.05319466662951" lon="118.80392181575348">
        <ele>6.6159908371046185</ele>
        <time>2026-09-07T10:43:06Z</time>
      </trkpt>
      <trkpt lat="32.05310057593349" lon="118.80388174535211">
        <ele>6.145669181831181</ele>
        <time>2026-09-07T10:43:12Z</time>
      </trkpt>
      <trkpt lat="32.05302255680973" lon="118.80388075054591">
        <ele>6.010911186225712</ele>
        <time>2026-09-07T10:43:15Z</time>
      </trkpt>
      <trkpt lat="32.05273928636182" lon="118.80376154156865">
        <ele>6.343838890083134</ele>
        <time>2026-09-07T10:43:27Z</time>
      </trkpt>
      <trkpt lat="32.05241405023965" lon="118.80366738598633">
        <ele>6.44952889252454</ele>
        <time>2026-09-07T10:43:42Z</time>
      </trkpt>
      <trkpt lat="32.0522089175185" lon="118.80361730624318">
        <ele>6.187943656928837</ele>
        <time>2026-09-07T10:43:51Z</time>
      </trkpt>
      <trkpt lat="32.052040027746756" lon="118.8037024893989">
        <ele>7.139161308296025</ele>
        <time>2026-09-07T10:44:00Z</time>
      </trkpt>
      <trkpt lat="32.051934232284864" lon="118.803833757711">
        <ele>4.893227775581181</ele>
        <time>2026-09-07T10:44:06Z</time>
      </trkpt>
      <trkpt lat="32.051893524863736" lon="118.80400710338218">
        <ele>6.103390892036259</ele>
        <time>2026-09-07T10:44:12Z</time>
      </trkpt>
      <trkpt lat="32.051886724109906" lon="118.80412233157325">
        <ele>6.2936336593702435</ele>
        <time>2026-09-07T10:44:15Z</time>
      </trkpt>
      <trkpt lat="32.05194599773212" lon="118.80427162129347">
        <ele>6.03204842377454</ele>
        <time>2026-09-07T10:44:21Z</time>
      </trkpt>
      <trkpt lat="32.05205023968243" lon="118.80439685961528">
        <ele>6.074326713569462</ele>
        <time>2026-09-07T10:44:27Z</time>
      </trkpt>
      <trkpt lat="32.052301402497484" lon="118.80445795760444">
        <ele>6.113961418159306</ele>
        <time>2026-09-07T10:44:40Z</time>
      </trkpt>
      <trkpt lat="32.052357407979365" lon="118.80445394451792">
        <ele>5.802170951850712</ele>
        <time>2026-09-07T10:44:43Z</time>
      </trkpt>
      <trkpt lat="32.05250054849697" lon="118.80451605447448">
        <ele>5.802170951850712</ele>
        <time>2026-09-07T10:44:52Z</time>
      </trkpt>
      <trkpt lat="32.05258568840691" lon="118.8045851837319">
        <ele>5.426968772895634</ele>
        <time>2026-09-07T10:44:58Z</time>
      </trkpt>
      <trkpt lat="32.05266064025701" lon="118.80454810332904">
        <ele>6.5023738937452435</ele>
        <time>2026-09-07T10:45:04Z</time>
      </trkpt>
      <trkpt lat="32.052929924711734" lon="118.8046763330064">
        <ele>6.166806419380009</ele>
        <time>2026-09-07T10:45:16Z</time>
      </trkpt>
      <trkpt lat="32.05310698872155" lon="118.8046903445807">
        <ele>5.331845481880009</ele>
        <time>2026-09-07T10:45:22Z</time>
      </trkpt>
      <trkpt lat="32.05326688576907" lon="118.8046111728159">
        <ele>6.127171714790165</ele>
        <time>2026-09-07T10:45:31Z</time>
      </trkpt>
      <trkpt lat="32.05336360942115" lon="118.80444082625863">
        <ele>6.417821128852665</ele>
        <time>2026-09-07T10:45:40Z</time>
      </trkpt>
      <trkpt lat="32.05339923070597" lon="118.80421938470664">
        <ele>6.51294441986829</ele>
        <time>2026-09-07T10:45:49Z</time>
      </trkpt>
      <trkpt lat="32.05333894302439" lon="118.80406207937023">
        <ele>6.605424125678837</ele>
        <time>2026-09-07T10:45:55Z</time>
      </trkpt>
      <trkpt lat="32.053245711132035" lon="118.80394084861972">
        <ele>5.049123008735478</ele>
        <time>2026-09-07T10:46:01Z</time>
      </trkpt>
      <trkpt lat="32.053143587257765" lon="118.8038827433754">
        <ele>2.480832298286259</ele>
        <time>2026-09-07T10:46:08Z</time>
      </trkpt>
      <trkpt lat="32.05297251080034" lon="118.80386071563126">
        <ele>5.738755424506962</ele>
        <time>2026-09-07T10:46:17Z</time>
      </trkpt>
      <trkpt lat="32.052642283899175" lon="118.80377257219656">
        <ele>6.542008598335087</ele>
        <time>2026-09-07T10:46:32Z</time>
      </trkpt>
      <trkpt lat="32.05236003993819" lon="118.80366839292209">
        <ele>5.144246299751103</ele>
        <time>2026-09-07T10:46:47Z</time>
      </trkpt>
      <trkpt lat="32.05222696154991" lon="118.80364034993323">
        <ele>4.61050530243665</ele>
        <time>2026-09-07T10:46:53Z</time>
      </trkpt>
      <trkpt lat="32.05207094415371" lon="118.80365038399027">
        <ele>6.576356132514775</ele>
        <time>2026-09-07T10:46:56Z</time>
      </trkpt>
      <trkpt lat="32.05197907507947" lon="118.80373756406131">
        <ele>6.364976127631962</ele>
        <time>2026-09-07T10:46:59Z</time>
      </trkpt>
      <trkpt lat="32.05193418349118" lon="118.80380570242048">
        <ele>6.30420418549329</ele>
        <time>2026-09-07T10:47:02Z</time>
      </trkpt>
      <trkpt lat="32.05188740313134" lon="118.80393796750884">
        <ele>5.865586479194462</ele>
        <time>2026-09-07T10:47:05Z</time>
      </trkpt>
      <trkpt lat="32.05189173745474" lon="118.80412934497141">
        <ele>7.725747306831181</ele>
        <time>2026-09-07T10:47:11Z</time>
      </trkpt>
      <trkpt lat="32.051909883031215" lon="118.80421050372831">
        <ele>6.021481712348759</ele>
        <time>2026-09-07T10:47:14Z</time>
      </trkpt>
      <trkpt lat="32.05203024572618" lon="118.80440287335787">
        <ele>5.947495658881962</ele>
        <time>2026-09-07T10:47:24Z</time>
      </trkpt>
      <trkpt lat="32.052116322699966" lon="118.80443593093968">
        <ele>3.7438404159620404</ele>
        <time>2026-09-07T10:47:27Z</time>
      </trkpt>
      <trkpt lat="32.0523064106196" lon="118.80446196508517">
        <ele>-0.7559535903856158</ele>
        <time>2026-09-07T10:47:36Z</time>
      </trkpt>
      <trkpt lat="32.052596664558294" lon="118.80457015291692">
        <ele>5.593430717475712</ele>
        <time>2026-09-07T10:47:51Z</time>
      </trkpt>
      <trkpt lat="32.05274374642591" lon="118.80459819504468">
        <ele>5.342416008003056</ele>
        <time>2026-09-07T10:48:03Z</time>
      </trkpt>
      <trkpt lat="32.052868867252" lon="118.8046512889046">
        <ele>6.30420418549329</ele>
        <time>2026-09-07T10:48:06Z</time>
      </trkpt>
      <trkpt lat="32.05293286923471" lon="118.80464426910657">
        <ele>6.000340660102665</ele>
        <time>2026-09-07T10:48:09Z</time>
      </trkpt>
      <trkpt lat="32.0530289432638" lon="118.80467431993127">
        <ele>6.80359383393079</ele>
        <time>2026-09-07T10:48:12Z</time>
      </trkpt>
      <trkpt lat="32.053093952483124" lon="118.80467130799238">
        <ele>6.396683891303837</ele>
        <time>2026-09-07T10:48:15Z</time>
      </trkpt>
      <trkpt lat="32.05325387936533" lon="118.8046091700357">
        <ele>5.770463188178837</ele>
        <time>2026-09-07T10:48:24Z</time>
      </trkpt>
      <trkpt lat="32.05332478647036" lon="118.80454704031901">
        <ele>6.65826912689954</ele>
        <time>2026-09-07T10:48:30Z</time>
      </trkpt>
      <trkpt lat="32.05337457159085" lon="118.80441777960203">
        <ele>7.3056270675733685</ele>
        <time>2026-09-07T10:48:36Z</time>
      </trkpt>
      <trkpt lat="32.053382174475" lon="118.80418932683985">
        <ele>6.375546653755009</ele>
        <time>2026-09-07T10:48:45Z</time>
      </trkpt>
      <trkpt lat="32.05333593362572" lon="118.80405706975284">
        <ele>6.0848934249952435</ele>
        <time>2026-09-07T10:48:51Z</time>
      </trkpt>
      <trkpt lat="32.05325372861424" lon="118.8039498656752">
        <ele>5.342416008003056</ele>
        <time>2026-09-07T10:48:57Z</time>
      </trkpt>
      <trkpt lat="32.053022499281646" lon="118.80384768535713">
        <ele>6.2619258956983685</ele>
        <time>2026-09-07T10:49:09Z</time>
      </trkpt>
      <trkpt lat="32.052816500439675" lon="118.80387475762686">
        <ele>6.09546395111829</ele>
        <time>2026-09-07T10:49:21Z</time>
      </trkpt>
      <trkpt lat="32.052565219705336" lon="118.80374552598504">
        <ele>2.438557823188603</ele>
        <time>2026-09-07T10:49:33Z</time>
      </trkpt>
      <trkpt lat="32.05232201928116" lon="118.80366138261026">
        <ele>4.790181358344853</ele>
        <time>2026-09-07T10:49:45Z</time>
      </trkpt>
      <trkpt lat="32.052032062524795" lon="118.80372353156511">
        <ele>6.364976127631962</ele>
        <time>2026-09-07T10:49:57Z</time>
      </trkpt>
      <trkpt lat="32.05190438948177" lon="118.80392794618112">
        <ele>6.209080894477665</ele>
        <time>2026-09-07T10:50:07Z</time>
      </trkpt>
      <trkpt lat="32.0518917723992" lon="118.8041493845692">
        <ele>7.054608543403447</ele>
        <time>2026-09-07T10:50:13Z</time>
      </trkpt>
      <trkpt lat="32.051938008191286" lon="118.8042786359033">
        <ele>3.6302234726026654</ele>
        <time>2026-09-07T10:50:19Z</time>
      </trkpt>
      <trkpt lat="32.05200516837165" lon="118.8043617943192">
        <ele>3.284085472114384</ele>
        <time>2026-09-07T10:50:22Z</time>
      </trkpt>
      <trkpt lat="32.05212433499325" lon="118.80444194211277">
        <ele>6.4072506027296185</ele>
        <time>2026-09-07T10:50:28Z</time>
      </trkpt>
      <trkpt lat="32.05243150857737" lon="118.80450203301389">
        <ele>5.0914012985304</ele>
        <time>2026-09-07T10:50:43Z</time>
      </trkpt>
      <trkpt lat="32.052590652701106" lon="118.8045641415477">
        <ele>2.626157005317509</ele>
        <time>2026-09-07T10:50:52Z</time>
      </trkpt>
      <trkpt lat="32.052635636436754" lon="118.80454910761307">
        <ele>3.315793235786259</ele>
        <time>2026-09-07T10:50:55Z</time>
      </trkpt>
      <trkpt lat="32.05275666691581" lon="118.80455110046594">
        <ele>6.198514183051884</ele>
        <time>2026-09-07T10:51:04Z</time>
      </trkpt>
      <trkpt lat="32.05289084408613" lon="118.80463525507504">
        <ele>5.897294242866337</ele>
        <time>2026-09-07T10:51:07Z</time>
      </trkpt>
      <trkpt lat="32.053099953820016" lon="118.80467130744097">
        <ele>6.314774711616337</ele>
        <time>2026-09-07T10:51:16Z</time>
      </trkpt>
      <trkpt lat="32.05322093165227" lon="118.804643240651">
        <ele>6.230221946723759</ele>
        <time>2026-09-07T10:51:22Z</time>
      </trkpt>
      <trkpt lat="32.05327787068155" lon="118.80460115193091">
        <ele>6.335911949165165</ele>
        <time>2026-09-07T10:51:25Z</time>
      </trkpt>
      <trkpt lat="32.053365648402746" lon="118.80446286974379">
        <ele>7.860501487739384</ele>
        <time>2026-09-07T10:51:31Z</time>
      </trkpt>
      <trkpt lat="32.05340743539323" lon="118.8043356139015">
        <ele>6.113961418159306</ele>
        <time>2026-09-07T10:51:38Z</time>
      </trkpt>
      <trkpt lat="32.05339312798855" lon="118.80416127037466">
        <ele>6.09546395111829</ele>
        <time>2026-09-07T10:51:44Z</time>
      </trkpt>
      <trkpt lat="32.05337400845028" lon="118.80409514145806">
        <ele>4.663350303657353</ele>
        <time>2026-09-07T10:51:47Z</time>
      </trkpt>
      <trkpt lat="32.05328578982959" lon="118.80398092402349">
        <ele>-1.778513710014522</ele>
        <time>2026-09-07T10:51:53Z</time>
      </trkpt>
      <trkpt lat="32.05317766109796" lon="118.80392081533971">
        <ele>0.5176250534132123</ele>
        <time>2026-09-07T10:51:59Z</time>
      </trkpt>
      <trkpt lat="32.05306060538187" lon="118.80390379249835">
        <ele>6.283066947944462</ele>
        <time>2026-09-07T10:52:02Z</time>
      </trkpt>
      <trkpt lat="32.052990528757796" lon="118.80386872978016">
        <ele>5.791604240424931</ele>
        <time>2026-09-07T10:52:08Z</time>
      </trkpt>
      <trkpt lat="32.052796529109614" lon="118.80389379700432">
        <ele>4.7769710617139935</ele>
        <time>2026-09-07T10:52:11Z</time>
      </trkpt>
      <trkpt lat="32.05280518330042" lon="118.8038227327943">
        <ele>6.6159908371046185</ele>
        <time>2026-09-07T10:52:14Z</time>
      </trkpt>
      <trkpt lat="32.05287962850295" lon="118.80379940777624">
        <ele>3.461117942817509</ele>
        <time>2026-09-07T10:52:17Z</time>
      </trkpt>
      <trkpt lat="32.0526082118772" lon="118.8037355022989">
        <ele>6.113961418159306</ele>
        <time>2026-09-07T10:52:29Z</time>
      </trkpt>
      <trkpt lat="32.05232401798686" lon="118.80366038045437">
        <ele>7.0651790695264935</ele>
        <time>2026-09-07T10:52:41Z</time>
      </trkpt>
      <trkpt lat="32.05224295641857" lon="118.80363533860425">
        <ele>5.865586479194462</ele>
        <time>2026-09-07T10:52:47Z</time>
      </trkpt>
      <trkpt lat="32.052144972842385" lon="118.80365739099176">
        <ele>5.635709007270634</ele>
        <time>2026-09-07T10:52:53Z</time>
      </trkpt>
      <trkpt lat="32.05205702805736" lon="118.80370048389089">
        <ele>6.4706661300733685</ele>
        <time>2026-09-07T10:52:56Z</time>
      </trkpt>
      <trkpt lat="32.051945208598205" lon="118.80381872707841">
        <ele>6.074326713569462</ele>
        <time>2026-09-07T10:53:02Z</time>
      </trkpt>
      <trkpt lat="32.05189148602367" lon="118.80398506005976">
        <ele>6.187943656928837</ele>
        <time>2026-09-07T10:53:08Z</time>
      </trkpt>
      <trkpt lat="32.051885727380764" lon="118.80412433562442">
        <ele>6.605424125678837</ele>
        <time>2026-09-07T10:53:11Z</time>
      </trkpt>
      <trkpt lat="32.0519439762977" lon="118.80425959769407">
        <ele>5.968636711128056</ele>
        <time>2026-09-07T10:53:14Z</time>
      </trkpt>
      <trkpt lat="32.05200611783981" lon="118.80433273671309">
        <ele>2.187539299018681</ele>
        <time>2026-09-07T10:53:17Z</time>
      </trkpt>
      <trkpt lat="32.052170334745185" lon="118.80443592597696">
        <ele>5.561722953803837</ele>
        <time>2026-09-07T10:53:23Z</time>
      </trkpt>
      <trkpt lat="32.052393458051505" lon="118.80447798885318">
        <ele>5.154813011176884</ele>
        <time>2026-09-07T10:53:32Z</time>
      </trkpt>
      <trkpt lat="32.05267770891685" lon="118.80458517527701">
        <ele>5.646279533393681</ele>
        <time>2026-09-07T10:53:48Z</time>
      </trkpt>
      <trkpt lat="32.05279882358125" lon="118.8046352635299">
        <ele>5.23672600556165</ele>
        <time>2026-09-07T10:53:57Z</time>
      </trkpt>
      <trkpt lat="32.05293685609196" lon="118.80463625283546">
        <ele>6.09546395111829</ele>
        <time>2026-09-07T10:54:03Z</time>
      </trkpt>
      <trkpt lat="32.053089951591865" lon="118.80467130835999">
        <ele>5.947495658881962</ele>
        <time>2026-09-07T10:54:09Z</time>
      </trkpt>
      <trkpt lat="32.05322589417466" lon="118.80462119645954">
        <ele>-5.305947105400264</ele>
        <time>2026-09-07T10:54:15Z</time>
      </trkpt>
      <trkpt lat="32.05334373286215" lon="118.80451397302804">
        <ele>-3.461640159599483</ele>
        <time>2026-09-07T10:54:21Z</time>
      </trkpt>
      <trkpt lat="32.05339047711166" lon="118.80436166702978">
        <ele>7.054608543403447</ele>
        <time>2026-09-07T10:54:27Z</time>
      </trkpt>
      <trkpt lat="32.053395339989976" lon="118.80428250992317">
        <ele>4.267010887153447</ele>
        <time>2026-09-07T10:54:30Z</time>
      </trkpt>
      <trkpt lat="32.05333696178707" lon="118.80407310132036">
        <ele>5.802170951850712</ele>
        <time>2026-09-07T10:54:39Z</time>
      </trkpt>
      <trkpt lat="32.053300871708636" lon="118.80402601164161">
        <ele>5.833878715522587</ele>
        <time>2026-09-07T10:54:42Z</time>
      </trkpt>
      <trkpt lat="32.05303660352175" lon="118.8039057986565">
        <ele>6.021481712348759</ele>
        <time>2026-09-07T10:54:54Z</time>
      </trkpt>
      <trkpt lat="32.05277338279062" lon="118.80381263912462">
        <ele>4.7558300094679</ele>
        <time>2026-09-07T10:55:09Z</time>
      </trkpt>
      <trkpt lat="32.052506166498794" lon="118.80372248602326">
        <ele>4.496888359077275</ele>
        <time>2026-09-07T10:55:24Z</time>
      </trkpt>
      <trkpt lat="32.05230302548608" lon="118.8036673961893">
        <ele>5.905221183784306</ele>
        <time>2026-09-07T10:55:36Z</time>
      </trkpt>
      <trkpt lat="32.052146018317465" lon="118.80368344217689">
        <ele>-1.6331851882860065</ele>
        <time>2026-09-07T10:55:45Z</time>
      </trkpt>
      <trkpt lat="32.05202209860461" lon="118.80374557589589">
        <ele>5.876157005317509</ele>
        <time>2026-09-07T10:55:48Z</time>
      </trkpt>
      <trkpt lat="32.05198016936154" lon="118.80379167055202">
        <ele>5.215588768012822</ele>
        <time>2026-09-07T10:55:51Z</time>
      </trkpt>
      <trkpt lat="32.05192239175372" lon="118.80392694255028">
        <ele>5.865586479194462</ele>
        <time>2026-09-07T10:55:57Z</time>
      </trkpt>
      <trkpt lat="32.051895731359025" lon="118.804125336685">
        <ele>6.283066947944462</ele>
        <time>2026-09-07T10:56:06Z</time>
      </trkpt>
      <trkpt lat="32.05190385197456" lon="118.80419347060436">
        <ele>5.833878715522587</ele>
        <time>2026-09-07T10:56:09Z</time>
      </trkpt>
      <trkpt lat="32.0519811350131" lon="118.80434576479124">
        <ele>2.438557823188603</ele>
        <time>2026-09-07T10:56:15Z</time>
      </trkpt>
      <trkpt lat="32.05210532374908" lon="118.80443793591996">
        <ele>3.1493274765089154</ele>
        <time>2026-09-07T10:56:21Z</time>
      </trkpt>
      <trkpt lat="32.05220734825228" lon="118.80443892853066">
        <ele>6.209080894477665</ele>
        <time>2026-09-07T10:56:24Z</time>
      </trkpt>
      <trkpt lat="32.052390522216406" lon="118.80451506259772">
        <ele>5.331845481880009</ele>
        <time>2026-09-07T10:56:33Z</time>
      </trkpt>
      <trkpt lat="32.05252560840657" lon="118.8045471137493">
        <ele>4.298718650825322</ele>
        <time>2026-09-07T10:56:40Z</time>
      </trkpt>
      <trkpt lat="32.05261270670123" lon="118.80459219516038">
        <ele>4.3594905929639935</ele>
        <time>2026-09-07T10:56:43Z</time>
      </trkpt>
      <trkpt lat="32.0527657390543" lon="118.80459117911236">
        <ele>2.021077354438603</ele>
        <time>2026-09-07T10:56:49Z</time>
      </trkpt>
      <trkpt lat="32.053066995604155" lon="118.80469936615594">
        <ele>2.898312767036259</ele>
        <time>2026-09-07T10:57:04Z</time>
      </trkpt>
      <trkpt lat="32.053124994487085" lon="118.80469134491524">
        <ele>1.0698597030714154</ele>
        <time>2026-09-07T10:57:07Z</time>
      </trkpt>
      <trkpt lat="32.053200937722714" lon="118.80464925441727">
        <ele>5.915787895210087</ele>
        <time>2026-09-07T10:57:13Z</time>
      </trkpt>
      <trkpt lat="32.05334870944211" lon="118.80449994476687">
        <ele>5.646279533393681</ele>
        <time>2026-09-07T10:57:19Z</time>
      </trkpt>
      <trkpt lat="32.053391342597564" lon="118.80428451425531">
        <ele>5.781033714301884</ele>
        <time>2026-09-07T10:57:28Z</time>
      </trkpt>
      <trkpt lat="32.05338319042972" lon="118.80419834457518">
        <ele>4.861523826606572</ele>
        <time>2026-09-07T10:57:31Z</time>
      </trkpt>
      <trkpt lat="32.05335604461628" lon="118.80411818863851">
        <ele>5.625138481147587</ele>
        <time>2026-09-07T10:57:34Z</time>
      </trkpt>
      <trkpt lat="32.053266820499005" lon="118.80400096531994">
        <ele>5.23672600556165</ele>
        <time>2026-09-07T10:57:40Z</time>
      </trkpt>
      <trkpt lat="32.053015543045646" lon="118.80387373735991">
        <ele>5.226155479438603</ele>
        <time>2026-09-07T10:57:52Z</time>
      </trkpt>
      <trkpt lat="32.05283144102894" lon="118.80383868513766">
        <ele>5.561722953803837</ele>
        <time>2026-09-07T10:58:01Z</time>
      </trkpt>
      <trkpt lat="32.052544119259764" lon="118.80369041940075">
        <ele>3.5985157089307904</ele>
        <time>2026-09-07T10:58:16Z</time>
      </trkpt>
      <trkpt lat="32.05218596980607" lon="118.80365037341969">
        <ele>4.935506065376103</ele>
        <time>2026-09-07T10:58:34Z</time>
      </trkpt>
      <trkpt lat="32.05207000658623" lon="118.80368645507993">
        <ele>4.935506065376103</ele>
        <time>2026-09-07T10:58:41Z</time>
      </trkpt>
      <trkpt lat="32.051918265317745" lon="118.803854800658">
        <ele>2.845467765815556</ele>
        <time>2026-09-07T10:58:47Z</time>
      </trkpt>
      <trkpt lat="32.05189377109809" lon="118.80414838240534">
        <ele>4.507458885200322</ele>
        <time>2026-09-07T10:58:56Z</time>
      </trkpt>
      <trkpt lat="32.05190899647339" lon="118.80427563262218">
        <ele>4.3594905929639935</ele>
        <time>2026-09-07T10:59:02Z</time>
      </trkpt>
      <trkpt lat="32.05196217453227" lon="118.80437081612301">
        <ele>4.589368064887822</ele>
        <time>2026-09-07T10:59:05Z</time>
      </trkpt>
      <trkpt lat="32.05201825005302" lon="118.8044068823974">
        <ele>5.268433769233525</ele>
        <time>2026-09-07T10:59:08Z</time>
      </trkpt>
      <trkpt lat="32.05219528953623" lon="118.80440686613063">
        <ele>4.4651805954054</ele>
        <time>2026-09-07T10:59:17Z</time>
      </trkpt>
      <trkpt lat="32.05239952597589" lon="118.80451606375655">
        <ele>2.375142295844853</ele>
        <time>2026-09-07T10:59:26Z</time>
      </trkpt>
      <trkpt lat="32.052644705067316" lon="118.80458718228391">
        <ele>5.498311241157353</ele>
        <time>2026-09-07T10:59:38Z</time>
      </trkpt>
      <trkpt lat="32.05293488722439" lon="118.80465428880356">
        <ele>4.578797538764775</ele>
        <time>2026-09-07T10:59:56Z</time>
      </trkpt>
      <trkpt lat="32.053096965434825" lon="118.80467832163608">
        <ele>4.840382774360478</ele>
        <time>2026-09-07T11:00:05Z</time>
      </trkpt>
      <trkpt lat="32.05321188403979" lon="118.80461718979572">
        <ele>5.038556297309697</ele>
        <time>2026-09-07T11:00:11Z</time>
      </trkpt>
      <trkpt lat="32.05328973485383" lon="118.80452199387894">
        <ele>5.289571006782353</ele>
        <time>2026-09-07T11:00:17Z</time>
      </trkpt>
      <trkpt lat="32.05337064250939" lon="118.80445886134386">
        <ele>5.268433769233525</ele>
        <time>2026-09-07T11:00:20Z</time>
      </trkpt>
      <trkpt lat="32.05339623528291" lon="118.80422239092609">
        <ele>4.4546138839796185</ele>
        <time>2026-09-07T11:00:29Z</time>
      </trkpt>
      <trkpt lat="32.053355971258206" lon="118.80407610551059">
        <ele>4.956643302924931</ele>
        <time>2026-09-07T11:00:35Z</time>
      </trkpt>
      <trkpt lat="32.0530425386019" lon="118.803867723025">
        <ele>3.6090862350538373</ele>
        <time>2026-09-07T11:00:51Z</time>
      </trkpt>
      <trkpt lat="32.05297148791679" lon="118.8038476900449">
        <ele>14.5798046188429</ele>
        <time>2026-09-07T11:00:57Z</time>
      </trkpt>
      <trkpt lat="32.05291748285494" lon="118.80385170290913">
        <ele>4.726765831001103</ele>
        <time>2026-09-07T11:01:00Z</time>
      </trkpt>
      <trkpt lat="32.05283237851659" lon="118.80380261395669">
        <ele>4.695058067329228</ele>
        <time>2026-09-07T11:01:06Z</time>
      </trkpt>
      <trkpt lat="32.05257023301134" lon="118.80375253934001">
        <ele>-1.3187549514696002</ele>
        <time>2026-09-07T11:01:18Z</time>
      </trkpt>
      <trkpt lat="32.052440038633875" lon="118.80365736387576">
        <ele>4.8826610641554</ele>
        <time>2026-09-07T11:01:27Z</time>
      </trkpt>
      <trkpt lat="32.05224692599396" lon="118.80361730275025">
        <ele>4.903798301704228</ele>
        <time>2026-09-07T11:01:36Z</time>
      </trkpt>
      <trkpt lat="32.05202697784682" lon="118.80367543733632">
        <ele>4.850953300483525</ele>
        <time>2026-09-07T11:01:45Z</time>
      </trkpt>
      <trkpt lat="32.051894226845825" lon="118.80383576533735">
        <ele>4.589368064887822</ele>
        <time>2026-09-07T11:01:54Z</time>
      </trkpt>
      <trkpt lat="32.05185663357746" lon="118.80407423932783">
        <ele>4.988351066596806</ele>
        <time>2026-09-07T11:02:03Z</time>
      </trkpt>
      <trkpt lat="32.05193197187143" lon="118.80425859681509">
        <ele>2.784695823676884</ele>
        <time>2026-09-07T11:02:12Z</time>
      </trkpt>
      <trkpt lat="32.052055242548725" lon="118.8043978611398">
        <ele>3.7438404159620404</ele>
        <time>2026-09-07T11:02:21Z</time>
      </trkpt>
      <trkpt lat="32.05226438899049" lon="118.80445495504982">
        <ele>5.656846244819462</ele>
        <time>2026-09-07T11:02:33Z</time>
      </trkpt>
      <trkpt lat="32.052330391448365" lon="118.8044479350898">
        <ele>4.840382774360478</ele>
        <time>2026-09-07T11:02:37Z</time>
      </trkpt>
      <trkpt lat="32.05252059852706" lon="118.80454210427673">
        <ele>5.781033714301884</ele>
        <time>2026-09-07T11:02:43Z</time>
      </trkpt>
      <trkpt lat="32.052846788675176" lon="118.80460920743978">
        <ele>5.194447715766728</ele>
        <time>2026-09-07T11:02:58Z</time>
      </trkpt>
      <trkpt lat="32.05309902204116" lon="118.80471038509371">
        <ele>1.4371349411085248</ele>
        <time>2026-09-07T11:03:10Z</time>
      </trkpt>
      <trkpt lat="32.05316102005845" lon="118.8047013614951">
        <ele>4.893227775581181</ele>
        <time>2026-09-07T11:03:13Z</time>
      </trkpt>
      <trkpt lat="32.053286900747864" lon="118.80461718290303">
        <ele>4.977780540473759</ele>
        <time>2026-09-07T11:03:19Z</time>
      </trkpt>
      <trkpt lat="32.05340357805026" lon="118.80441777693673">
        <ele>5.456032951362431</ele>
        <time>2026-09-07T11:03:25Z</time>
      </trkpt>
      <trkpt lat="32.05342036480098" lon="118.80429352943102">
        <ele>4.988351066596806</ele>
        <time>2026-09-07T11:03:28Z</time>
      </trkpt>
      <trkpt lat="32.053410203435966" lon="118.8042023500172">
        <ele>-1.4772937698289752</ele>
        <time>2026-09-07T11:03:31Z</time>
      </trkpt>
      <trkpt lat="32.05330074606246" lon="118.80395386926257">
        <ele>2.930020530708134</ele>
        <time>2026-09-07T11:03:43Z</time>
      </trkpt>
      <trkpt lat="32.052989451326624" lon="118.8039837842122">
        <ele>4.935506065376103</ele>
        <time>2026-09-07T11:03:49Z</time>
      </trkpt>
      <trkpt lat="32.05301951953062" lon="118.80385970933581">
        <ele>2.9722950058057904</ele>
        <time>2026-09-07T11:03:52Z</time>
      </trkpt>
      <trkpt lat="32.05281635055848" lon="118.80378858778741">
        <ele>4.37006111908704</ele>
        <time>2026-09-07T11:04:04Z</time>
      </trkpt>
      <trkpt lat="32.05271434001827" lon="118.80379561098256">
        <ele>3.669858177192509</ele>
        <time>2026-09-07T11:04:10Z</time>
      </trkpt>
      <trkpt lat="32.05265528505533" lon="118.80377156902775">
        <ele>3.5033924179151654</ele>
        <time>2026-09-07T11:04:13Z</time>
      </trkpt>
      <trkpt lat="32.05252910721178" lon="118.80368541091707">
        <ele>4.444043357856572</ele>
        <time>2026-09-07T11:04:22Z</time>
      </trkpt>
      <trkpt lat="32.05219991377142" lon="118.80361630509915">
        <ele>-3.1155021591112018</ele>
        <time>2026-09-07T11:04:38Z</time>
      </trkpt>
      <trkpt lat="32.05206993871019" lon="118.80364737816669">
        <ele>4.840382774360478</ele>
        <time>2026-09-07T11:04:44Z</time>
      </trkpt>
      <trkpt lat="32.05200004493867" lon="118.80371752266831">
        <ele>4.840382774360478</ele>
        <time>2026-09-07T11:04:47Z</time>
      </trkpt>
      <trkpt lat="32.05190827180244" lon="118.80385981145353">
        <ele>2.7107097702100873</ele>
        <time>2026-09-07T11:04:53Z</time>
      </trkpt>
      <trkpt lat="32.051869732545946" lon="118.80412934699338">
        <ele>4.309285362251103</ele>
        <time>2026-09-07T11:05:05Z</time>
      </trkpt>
      <trkpt lat="32.051873874998755" lon="118.80421050703693">
        <ele>4.935506065376103</ele>
        <time>2026-09-07T11:05:08Z</time>
      </trkpt>
      <trkpt lat="32.05194610270371" lon="118.80433174024431">
        <ele>4.6739208297804</ele>
        <time>2026-09-07T11:05:14Z</time>
      </trkpt>
      <trkpt lat="32.05206126314777" lon="118.80440888241404">
        <ele>2.866605003364384</ele>
        <time>2026-09-07T11:05:20Z</time>
      </trkpt>
      <trkpt lat="32.05237650156987" lon="118.80450504402575">
        <ele>4.507458885200322</ele>
        <time>2026-09-07T11:05:35Z</time>
      </trkpt>
      <trkpt lat="32.05269476356401" lon="118.80461423134612">
        <ele>4.1190425949171185</ele>
        <time>2026-09-07T11:05:50Z</time>
      </trkpt>
      <trkpt lat="32.05303897532476" lon="118.80469135281866">
        <ele>4.496888359077275</ele>
        <time>2026-09-07T11:06:06Z</time>
      </trkpt>
      <trkpt lat="32.0531509757116" lon="118.80467731468491">
        <ele>4.557660301215947</ele>
        <time>2026-09-07T11:06:12Z</time>
      </trkpt>
      <trkpt lat="32.05326089670986" lon="118.80461818728008">
        <ele>4.3594905929639935</ele>
        <time>2026-09-07T11:06:18Z</time>
      </trkpt>
      <trkpt lat="32.0533197573108" lon="118.80453100899707">
        <ele>2.930020530708134</ele>
        <time>2026-09-07T11:06:24Z</time>
      </trkpt>
      <trkpt lat="32.05336574477275" lon="118.80451797895002">
        <ele>5.384694297797978</ele>
        <time>2026-09-07T11:06:27Z</time>
      </trkpt>
      <trkpt lat="32.05342032806646" lon="118.80427248780386">
        <ele>3.9420101242139935</ele>
        <time>2026-09-07T11:06:36Z</time>
      </trkpt>
      <trkpt lat="32.0534152150386" lon="118.80420836144363">
        <ele>4.330426414497197</ele>
        <time>2026-09-07T11:06:39Z</time>
      </trkpt>
      <trkpt lat="32.0533408876014" lon="118.80403001587747">
        <ele>4.726765831001103</ele>
        <time>2026-09-07T11:06:48Z</time>
      </trkpt>
      <trkpt lat="32.05315963615957" lon="118.80390879327915">
        <ele>4.935506065376103</ele>
        <time>2026-09-07T11:06:57Z</time>
      </trkpt>
      <trkpt lat="32.05286543292125" lon="118.80382966423821">
        <ele>4.026562889106572</ele>
        <time>2026-09-07T11:07:09Z</time>
      </trkpt>
      <trkpt lat="32.05255318568425" lon="118.80372749156865">
        <ele>3.4109127121046185</ele>
        <time>2026-09-07T11:07:24Z</time>
      </trkpt>
      <trkpt lat="32.05218790065708" lon="118.80361029437469">
        <ele>0.1820537643507123</ele>
        <time>2026-09-07T11:07:39Z</time>
      </trkpt>
      <trkpt lat="32.052124904001076" lon="118.80362031987838">
        <ele>4.058270652778447</ele>
        <time>2026-09-07T11:07:42Z</time>
      </trkpt>
      <trkpt lat="32.05197503762003" lon="118.80371652299324">
        <ele>3.524533470161259</ele>
        <time>2026-09-07T11:07:49Z</time>
      </trkpt>
      <trkpt lat="32.05190623649486" lon="118.80383977213424">
        <ele>3.8812381820753217</ele>
        <time>2026-09-07T11:07:55Z</time>
      </trkpt>
      <trkpt lat="32.051869472389974" lon="118.80398005219512">
        <ele>4.6316463546827435</ele>
        <time>2026-09-07T11:08:01Z</time>
      </trkpt>
      <trkpt lat="32.05188072801215" lon="118.80412533806361">
        <ele>4.589368064887822</ele>
        <time>2026-09-07T11:08:07Z</time>
      </trkpt>
      <trkpt lat="32.05199717008766" lon="118.80436379902142">
        <ele>4.351563652046025</ele>
        <time>2026-09-07T11:08:16Z</time>
      </trkpt>
      <trkpt lat="32.052044269861845" lon="118.80441489588209">
        <ele>2.792622764594853</ele>
        <time>2026-09-07T11:08:19Z</time>
      </trkpt>
      <trkpt lat="32.05233248474819" lon="118.80450104012642">
        <ele>4.507458885200322</ele>
        <time>2026-09-07T11:08:34Z</time>
      </trkpt>
      <trkpt lat="32.052618678229635" lon="118.8045751608294">
        <ele>3.5139629440382123</ele>
        <time>2026-09-07T11:08:49Z</time>
      </trkpt>
      <trkpt lat="32.05291284548077" lon="118.80463324907754">
        <ele>4.224732597358525</ele>
        <time>2026-09-07T11:09:04Z</time>
      </trkpt>
      <trkpt lat="32.0531099385018" lon="118.80466128663844">
        <ele>4.3911983566358685</ele>
        <time>2026-09-07T11:09:13Z</time>
      </trkpt>
      <trkpt lat="32.053225890666674" lon="118.80461919248427">
        <ele>4.3911983566358685</ele>
        <time>2026-09-07T11:09:19Z</time>
      </trkpt>
      <trkpt lat="32.053369654549165" lon="118.80446587533162">
        <ele>4.079407890327275</ele>
        <time>2026-09-07T11:09:28Z</time>
      </trkpt>
      <trkpt lat="32.053392524822364" lon="118.80438872040659">
        <ele>2.583882530219853</ele>
        <time>2026-09-07T11:09:31Z</time>
      </trkpt>
      <trkpt lat="32.05338613167205" lon="118.80416427695896">
        <ele>0.7369319992139935</ele>
        <time>2026-09-07T11:09:41Z</time>
      </trkpt>
      <trkpt lat="32.05331685781747" lon="118.80401599039104">
        <ele>4.079407890327275</ele>
        <time>2026-09-07T11:09:47Z</time>
      </trkpt>
      <trkpt lat="32.05322567527996" lon="118.80392281488044">
        <ele>3.2735149459913373</ele>
        <time>2026-09-07T11:09:53Z</time>
      </trkpt>
      <trkpt lat="32.053033550543496" lon="118.8038757396566">
        <ele>4.475751121528447</ele>
        <time>2026-09-07T11:10:02Z</time>
      </trkpt>
      <trkpt lat="32.05288837531677" lon="118.80379359104036">
        <ele>-0.7348125381395221</ele>
        <time>2026-09-07T11:10:08Z</time>
      </trkpt>
      <trkpt lat="32.05276836773635" lon="118.80380462378822">
        <ele>4.340993125922978</ele>
        <time>2026-09-07T11:10:14Z</time>
      </trkpt>
      <trkpt lat="32.05243208906473" lon="118.80368742377811">
        <ele>4.330426414497197</ele>
        <time>2026-09-07T11:10:29Z</time>
      </trkpt>
      <trkpt lat="32.05217189360912" lon="118.80360829190306">
        <ele>3.7649776535108685</ele>
        <time>2026-09-07T11:10:41Z</time>
      </trkpt>
      <trkpt lat="32.05213196472183" lon="118.80365438627084">
        <ele>2.512540061958134</ele>
        <time>2026-09-07T11:10:47Z</time>
      </trkpt>
      <trkpt lat="32.05201506569731" lon="118.80372754102011">
        <ele>3.6407901840284467</ele>
        <time>2026-09-07T11:10:56Z</time>
      </trkpt>
      <trkpt lat="32.051938194838456" lon="118.8038117138997">
        <ele>3.347500999458134</ele>
        <time>2026-09-07T11:11:02Z</time>
      </trkpt>
      <trkpt lat="32.05189833233621" lon="118.8038958834949">
        <ele>3.4320537643507123</ele>
        <time>2026-09-07T11:11:05Z</time>
      </trkpt>
      <trkpt lat="32.05186956314649" lon="118.80403215503652">
        <ele>4.4546138839796185</ele>
        <time>2026-09-07T11:11:11Z</time>
      </trkpt>
      <trkpt lat="32.05188179638003" lon="118.8041644151909">
        <ele>-0.12973288726061583</ele>
        <time>2026-09-07T11:11:17Z</time>
      </trkpt>
      <trkpt lat="32.05198807182897" lon="118.80430869077964">
        <ele>4.267010887153447</ele>
        <time>2026-09-07T11:11:27Z</time>
      </trkpt>
      <trkpt lat="32.05216130997046" lon="118.8044229010047">
        <ele>3.8601009445264935</ele>
        <time>2026-09-07T11:11:36Z</time>
      </trkpt>
      <trkpt lat="32.052559575672404" lon="118.80452406494045">
        <ele>3.6487171249464154</ele>
        <time>2026-09-07T11:11:54Z</time>
      </trkpt>
      <trkpt lat="32.05267365893249" lon="118.8045571200132">
        <ele>4.026562889106572</ele>
        <time>2026-09-07T11:12:00Z</time>
      </trkpt>
      <trkpt lat="32.052792706496916" lon="118.80456913291744">
        <ele>4.1005489425733685</ele>
        <time>2026-09-07T11:12:06Z</time>
      </trkpt>
      <trkpt lat="32.053011942985144" lon="118.80467632547058">
        <ele>3.8178226547315717</ele>
        <time>2026-09-07T11:12:18Z</time>
      </trkpt>
      <trkpt lat="32.0531489787756" lon="118.80467931884579">
        <ele>4.079407890327275</ele>
        <time>2026-09-07T11:12:24Z</time>
      </trkpt>
      <trkpt lat="32.05328187858763" lon="118.80460515951273">
        <ele>4.496888359077275</ele>
        <time>2026-09-07T11:12:30Z</time>
      </trkpt>
      <trkpt lat="32.053385547775136" lon="118.80440274882672">
        <ele>-2.5526988906785846</ele>
        <time>2026-09-07T11:12:39Z</time>
      </trkpt>
      <trkpt lat="32.05338914806905" lon="118.80417329450681">
        <ele>4.433472831733525</ele>
        <time>2026-09-07T11:12:48Z</time>
      </trkpt>
      <trkpt lat="32.053370032013" lon="118.80410916953618">
        <ele>4.2564403610304</ele>
        <time>2026-09-07T11:12:51Z</time>
      </trkpt>
      <trkpt lat="32.05318365022643" lon="118.80391380095413">
        <ele>2.866605003364384</ele>
        <time>2026-09-07T11:13:01Z</time>
      </trkpt>
      <trkpt lat="32.052883445647005" lon="118.80383467245814">
        <ele>-5.1500537795946</ele>
        <time>2026-09-07T11:13:13Z</time>
      </trkpt>
      <trkpt lat="32.05276633767163" lon="118.80378759040914">
        <ele>3.9842884140089154</ele>
        <time>2026-09-07T11:13:19Z</time>
      </trkpt>
      <trkpt lat="32.05245713642055" lon="118.80371146882453">
        <ele>3.2444507675245404</ele>
        <time>2026-09-07T11:13:37Z</time>
      </trkpt>
      <trkpt lat="32.052187971992346" lon="118.8036513752077">
        <ele>1.7594921188428998</ele>
        <time>2026-09-07T11:13:52Z</time>
      </trkpt>
      <trkpt lat="32.05210695566475" lon="118.80365238462497">
        <ele>3.6407901840284467</ele>
        <time>2026-09-07T11:13:55Z</time>
      </trkpt>
      <trkpt lat="32.051954116526026" lon="118.80376461964445">
        <ele>3.9631473617628217</ele>
        <time>2026-09-07T11:14:04Z</time>
      </trkpt>
      <trkpt lat="32.051873243075576" lon="118.80384779096784">
        <ele>4.224732597358525</ele>
        <time>2026-09-07T11:14:07Z</time>
      </trkpt>
      <trkpt lat="32.05183338236069" lon="118.80393296258924">
        <ele>4.309285362251103</ele>
        <time>2026-09-07T11:14:10Z</time>
      </trkpt>
      <trkpt lat="32.05185268158675" lon="118.80410229510912">
        <ele>4.956643302924931</ele>
        <time>2026-09-07T11:14:16Z</time>
      </trkpt>
      <trkpt lat="32.05192197663606" lon="118.80426260566156">
        <ele>4.829816062934697</ele>
        <time>2026-09-07T11:14:22Z</time>
      </trkpt>
      <trkpt lat="32.052044187574666" lon="118.80436780263615">
        <ele>5.466603477485478</ele>
        <time>2026-09-07T11:14:28Z</time>
      </trkpt>
      <trkpt lat="32.05233041597195" lon="118.80446196287951">
        <ele>3.7332698898389935</ele>
        <time>2026-09-07T11:14:44Z</time>
      </trkpt>
      <trkpt lat="32.05260163937514" lon="118.80455512265691">
        <ele>-0.9963977737352252</ele>
        <time>2026-09-07T11:14:56Z</time>
      </trkpt>
      <trkpt lat="32.05278675601059" lon="118.80459819109294">
        <ele>4.089978416450322</ele>
        <time>2026-09-07T11:15:05Z</time>
      </trkpt>
      <trkpt lat="32.05290180093311" lon="118.80460920238521">
        <ele>4.444043357856572</ele>
        <time>2026-09-07T11:15:11Z</time>
      </trkpt>
      <trkpt lat="32.05297090401954" lon="118.80465929543614">
        <ele>4.663350303657353</ele>
        <time>2026-09-07T11:15:14Z</time>
      </trkpt>
      <trkpt lat="32.053191997130014" lon="118.80468432483704">
        <ele>3.5456707077100873</ele>
        <time>2026-09-07T11:15:26Z</time>
      </trkpt>
      <trkpt lat="32.053255900857955" lon="118.80462119370246">
        <ele>2.993436058051884</ele>
        <time>2026-09-07T11:15:29Z</time>
      </trkpt>
      <trkpt lat="32.05328277711444" lon="118.80454704417897">
        <ele>4.0371334152296185</ele>
        <time>2026-09-07T11:15:32Z</time>
      </trkpt>
      <trkpt lat="32.05330514670062" lon="118.80451268389984">
        <ele>2.8877422409132123</ele>
        <time>2026-09-07T11:15:35Z</time>
      </trkpt>
      <trkpt lat="32.05334924886778" lon="118.80443218863323">
        <ele>3.8812381820753217</ele>
        <time>2026-09-07T11:15:41Z</time>
      </trkpt>
      <trkpt lat="32.05341426027399" lon="118.80423441304806">
        <ele>4.2458736496046185</ele>
        <time>2026-09-07T11:15:47Z</time>
      </trkpt>
      <trkpt lat="32.05337001454579" lon="118.80409914974267">
        <ele>2.731850822456181</ele>
        <time>2026-09-07T11:15:53Z</time>
      </trkpt>
      <trkpt lat="32.05313562383679" lon="118.80390478758068">
        <ele>4.2141658859327435</ele>
        <time>2026-09-07T11:16:08Z</time>
      </trkpt>
      <trkpt lat="32.053003575242755" lon="118.8038937779777">
        <ele>4.3594905929639935</ele>
        <time>2026-09-07T11:16:14Z</time>
      </trkpt>
      <trkpt lat="32.052755321282845" lon="118.80377957562757">
        <ele>3.6302234726026654</ele>
        <time>2026-09-07T11:16:26Z</time>
      </trkpt>
      <trkpt lat="32.052488145073866" lon="118.80371246794797">
        <ele>4.203595359809697</ele>
        <time>2026-09-07T11:16:38Z</time>
      </trkpt>
      <trkpt lat="32.052199969448424" lon="118.80364836818913">
        <ele>3.9208728866651654</ele>
        <time>2026-09-07T11:16:53Z</time>
      </trkpt>
      <trkpt lat="32.05200104342063" lon="118.80371652060342">
        <ele>-2.2276981277391315</ele>
        <time>2026-09-07T11:17:02Z</time>
      </trkpt>
      <trkpt lat="32.05189721183" lon="118.80382674728797">
        <ele>4.317212303169072</ele>
        <time>2026-09-07T11:17:08Z</time>
      </trkpt>
      <trkpt lat="32.05186630078533" lon="118.80388185877493">
        <ele>2.491402824409306</ele>
        <time>2026-09-07T11:17:11Z</time>
      </trkpt>
      <trkpt lat="32.05185849436616" lon="118.80399408088985">
        <ele>3.7966854171827435</ele>
        <time>2026-09-07T11:17:17Z</time>
      </trkpt>
      <trkpt lat="32.05189476258463" lon="118.80414337241346">
        <ele>3.669858177192509</ele>
        <time>2026-09-07T11:17:23Z</time>
      </trkpt>
      <trkpt lat="32.05206915464502" lon="118.80434575670371">
        <ele>3.9420101242139935</ele>
        <time>2026-09-07T11:17:33Z</time>
      </trkpt>
      <trkpt lat="32.05213825406024" lon="118.80439384557575">
        <ele>3.7755481796339154</ele>
        <time>2026-09-07T11:17:36Z</time>
      </trkpt>
      <trkpt lat="32.05243544464218" lon="118.8044649591851">
        <ele>5.321278770454228</ele>
        <time>2026-09-07T11:17:51Z</time>
      </trkpt>
      <trkpt lat="32.05248949172229" lon="118.80448499392841">
        <ele>3.347500999458134</ele>
        <time>2026-09-07T11:17:54Z</time>
      </trkpt>
      <trkpt lat="32.052549610251646" lon="118.80454510757077">
        <ele>4.224732597358525</ele>
        <time>2026-09-07T11:17:57Z</time>
      </trkpt>
      <trkpt lat="32.052831795855255" lon="118.80461522074324">
        <ele>4.203595359809697</ele>
        <time>2026-09-07T11:18:12Z</time>
      </trkpt>
      <trkpt lat="32.0530179566059" lon="118.80468333883911">
        <ele>2.721280296333134</ele>
        <time>2026-09-07T11:18:21Z</time>
      </trkpt>
      <trkpt lat="32.05308698602025" lon="118.80469134840746">
        <ele>4.058270652778447</ele>
        <time>2026-09-07T11:18:24Z</time>
      </trkpt>
      <trkpt lat="32.053214930315576" lon="118.80464324120241">
        <ele>4.079407890327275</ele>
        <time>2026-09-07T11:18:30Z</time>
      </trkpt>
      <trkpt lat="32.053330712441976" lon="118.80450395436416">
        <ele>2.229817588813603</ele>
        <time>2026-09-07T11:18:39Z</time>
      </trkpt>
      <trkpt lat="32.05339733693696" lon="118.8042805057749">
        <ele>3.3686382370069623</ele>
        <time>2026-09-07T11:18:48Z</time>
      </trkpt>
      <trkpt lat="32.053387117914625" lon="118.80415626102494">
        <ele>3.8601009445264935</ele>
        <time>2026-09-07T11:18:54Z</time>
      </trkpt>
      <trkpt lat="32.05335399875567" lon="118.80409213735881">
        <ele>4.684491355903447</ele>
        <time>2026-09-07T11:18:57Z</time>
      </trkpt>
      <trkpt lat="32.05319066225017" lon="118.80391981216843">
        <ele>3.085915763862431</ele>
        <time>2026-09-07T11:19:06Z</time>
      </trkpt>
      <trkpt lat="32.05301551515289" lon="118.80385770575282">
        <ele>3.461117942817509</ele>
        <time>2026-09-07T11:19:15Z</time>
      </trkpt>
      <trkpt lat="32.05269027369729" lon="118.80376054409892">
        <ele>3.4505474166944623</ele>
        <time>2026-09-07T11:19:30Z</time>
      </trkpt>
      <trkpt lat="32.05241806157438" lon="118.80367339745185">
        <ele>3.8812381820753217</ele>
        <time>2026-09-07T11:19:45Z</time>
      </trkpt>
      <trkpt lat="32.05219396462989" lon="118.80364636479702">
        <ele>3.0330669479444623</ele>
        <time>2026-09-07T11:19:54Z</time>
      </trkpt>
      <trkpt lat="32.05206895762939" lon="118.80365839994951">
        <ele>3.054208000190556</ele>
        <time>2026-09-07T11:20:00Z</time>
      </trkpt>
    </trkseg>
  </trk>
</gpx>