<?xml version="1.0" encoding="UTF-8"?>
<gpx xmlns="http://www.topografix.com/GPX/1/1" xmlns:gpxtpx="http://www.garmin.com/xmlschemas/TrackPointExtension/v1" xmlns:xsi="http://www.w3.org/2001/XMLSchema-instance" xsi:schemaLocation="http://www.topografix.com/GPX/1/1 http://www.topografix.com/GPX/1/1/gpx.xsd" version="1.1" creator="gpx.py -- https://github.com/tkrajina/gpxpy">
  <trk>
    <name>gpx from keep</name>
    <type>Run</type>
    <trkseg>
      <trkpt lat="32.05194736408227" lon="118.80333176909276">
        <ele>13.086626180447638</ele>
        <time>2026-09-08T10:24:17Z</time>
      </trkpt>
      <trkpt lat="32.05194736408227" lon="118.80333176909276">
        <ele>13.086626180447638</ele>
        <time>2026-09-08T10:24:23Z</time>
      </trkpt>
      <trkpt lat="32.05190777731691" lon="118.80357525113057">
        <ele>15.247628449416824</ele>
        <time>2026-09-08T10:24:47Z</time>
      </trkpt>
      <trkpt lat="32.05192427188592" lon="118.80385780603231">
        <ele>15.94518971345491</ele>
        <time>2026-09-08T10:25:03Z</time>
      </trkpt>
      <trkpt lat="32.05189142495694" lon="118.80394999086164">
        <ele>15.5699856271512</ele>
        <time>2026-09-08T10:25:06Z</time>
      </trkpt>
      <trkpt lat="32.05188263937883" lon="118.80407423693822">
        <ele>15.226491211867996</ele>
        <time>2026-09-08T10:25:09Z</time>
      </trkpt>
      <trkpt lat="32.05194297607459" lon="118.80425959778597">
        <ele>13.828727005935379</ele>
        <time>2026-09-08T10:25:15Z</time>
      </trkpt>
      <trkpt lat="32.05205223837773" lon="118.80439585744743">
        <ele>15.21592068574495</ele>
        <time>2026-09-08T10:25:21Z</time>
      </trkpt>
      <trkpt lat="32.05234245543862" lon="118.80448300346713">
        <ele>14.246207474685379</ele>
        <time>2026-09-08T10:25:33Z</time>
      </trkpt>
      <trkpt lat="32.05260667555436" lon="118.8045751619322">
        <ele>14.787873505569168</ele>
        <time>2026-09-08T10:25:45Z</time>
      </trkpt>
      <trkpt lat="32.05293491354295" lon="118.80466931862772">
        <ele>12.409827469802567</ele>
        <time>2026-09-08T10:25:57Z</time>
      </trkpt>
      <trkpt lat="32.05307698554706" lon="118.80469235131521">
        <ele>16.383807419753737</ele>
        <time>2026-09-08T10:26:03Z</time>
      </trkpt>
      <trkpt lat="32.05314497262002" lon="118.8046763132478">
        <ele>14.933198212600416</ele>
        <time>2026-09-08T10:26:06Z</time>
      </trkpt>
      <trkpt lat="32.05334665993729" lon="118.80447188935679">
        <ele>13.892142533279127</ele>
        <time>2026-09-08T10:26:18Z</time>
      </trkpt>
      <trkpt lat="32.05338653223988" lon="118.80439373087795">
        <ele>15.226491211867994</ele>
        <time>2026-09-08T10:26:21Z</time>
      </trkpt>
      <trkpt lat="32.053393252099454" lon="118.8042324110153">
        <ele>13.963483094192213</ele>
        <time>2026-09-08T10:26:27Z</time>
      </trkpt>
      <trkpt lat="32.053380112860545" lon="118.80415425770798">
        <ele>16.362668274856276</ele>
        <time>2026-09-08T10:26:30Z</time>
      </trkpt>
      <trkpt lat="32.05330883334564" lon="118.80400296541487">
        <ele>15.308400391555494</ele>
        <time>2026-09-08T10:26:36Z</time>
      </trkpt>
      <trkpt lat="32.05311557404515" lon="118.8038787380463">
        <ele>14.713889359451002</ele>
        <time>2026-09-08T10:26:45Z</time>
      </trkpt>
      <trkpt lat="32.05299342833693" lon="118.80381061495365">
        <ele>9.846820115066237</ele>
        <time>2026-09-08T10:26:51Z</time>
      </trkpt>
      <trkpt lat="32.052931515609664" lon="118.80386873520325">
        <ele>14.86185765168733</ele>
        <time>2026-09-08T10:26:54Z</time>
      </trkpt>
      <trkpt lat="32.05278426678407" lon="118.8037445038815">
        <ele>15.48543286225862</ele>
        <time>2026-09-08T10:27:00Z</time>
      </trkpt>
      <trkpt lat="32.052521175067" lon="118.80372549056378">
        <ele>12.639704941726393</ele>
        <time>2026-09-08T10:27:12Z</time>
      </trkpt>
      <trkpt lat="32.05245912990238" lon="118.80370746074931">
        <ele>14.27791333100862</ele>
        <time>2026-09-08T10:27:15Z</time>
      </trkpt>
      <trkpt lat="32.05239804145057" lon="118.80366438154066">
        <ele>14.872426270461744</ele>
        <time>2026-09-08T10:27:18Z</time>
      </trkpt>
      <trkpt lat="32.05218786934694" lon="118.8035922588959">
        <ele>14.465516327834791</ele>
        <time>2026-09-08T10:27:27Z</time>
      </trkpt>
      <trkpt lat="32.05204091484026" lon="118.80363736111505">
        <ele>15.13136792085237</ele>
        <time>2026-09-08T10:27:33Z</time>
      </trkpt>
      <trkpt lat="32.05196598338464" lon="118.8036864646393">
        <ele>12.629134415603346</ele>
        <time>2026-09-08T10:27:36Z</time>
      </trkpt>
      <trkpt lat="32.051868280310266" lon="118.8038698348841">
        <ele>15.633401154494948</ele>
        <time>2026-09-08T10:27:43Z</time>
      </trkpt>
      <trkpt lat="32.05186854721272" lon="118.8040231373258">
        <ele>14.964905976272291</ele>
        <time>2026-09-08T10:27:49Z</time>
      </trkpt>
      <trkpt lat="32.05193599025376" lon="118.80426861626648">
        <ele>14.29905247590608</ele>
        <time>2026-09-08T10:27:55Z</time>
      </trkpt>
      <trkpt lat="32.05198914204841" lon="118.80434877000575">
        <ele>15.226491211867994</ele>
        <time>2026-09-08T10:27:58Z</time>
      </trkpt>
      <trkpt lat="32.05205424757835" lon="118.80440086718397">
        <ele>13.609418152785963</ele>
        <time>2026-09-08T10:28:01Z</time>
      </trkpt>
      <trkpt lat="32.05238644422682" lon="118.80447097559946">
        <ele>15.00718235871858</ele>
        <time>2026-09-08T10:28:13Z</time>
      </trkpt>
      <trkpt lat="32.0526737115322" lon="118.80458717961878">
        <ele>15.736449479079909</ele>
        <time>2026-09-08T10:28:25Z</time>
      </trkpt>
      <trkpt lat="32.05297693167621" lon="118.80467432471009">
        <ele>14.745597123122877</ele>
        <time>2026-09-08T10:28:37Z</time>
      </trkpt>
      <trkpt lat="32.053120993595854" lon="118.80469134528285">
        <ele>14.893563508010573</ele>
        <time>2026-09-08T10:28:43Z</time>
      </trkpt>
      <trkpt lat="32.05326592764312" lon="118.80463522061198">
        <ele>15.54884838960237</ele>
        <time>2026-09-08T10:28:49Z</time>
      </trkpt>
      <trkpt lat="32.05331884824993" lon="118.80458311239359">
        <ele>15.955758332229323</ele>
        <time>2026-09-08T10:28:52Z</time>
      </trkpt>
      <trkpt lat="32.05339859094634" lon="118.80442579327205">
        <ele>15.038888215041823</ele>
        <time>2026-09-08T10:28:58Z</time>
      </trkpt>
      <trkpt lat="32.053399323389066" lon="118.80427248973396">
        <ele>15.287263154006666</ele>
        <time>2026-09-08T10:29:04Z</time>
      </trkpt>
      <trkpt lat="32.05336204071206" lon="118.80411518214837">
        <ele>14.29905247590608</ele>
        <time>2026-09-08T10:29:11Z</time>
      </trkpt>
      <trkpt lat="32.05325677464469" lon="118.80397591680256">
        <ele>13.421817063308424</ele>
        <time>2026-09-08T10:29:17Z</time>
      </trkpt>
      <trkpt lat="32.05300950510015" lon="118.80385269642798">
        <ele>14.182791947341627</ele>
        <time>2026-09-08T10:29:29Z</time>
      </trkpt>
      <trkpt lat="32.05272630436651" lon="118.80377356644938">
        <ele>14.766734360671705</ele>
        <time>2026-09-08T10:29:41Z</time>
      </trkpt>
      <trkpt lat="32.05245612749245" lon="118.80370645905226">
        <ele>14.557996033645338</ele>
        <time>2026-09-08T10:29:53Z</time>
      </trkpt>
      <trkpt lat="32.052144891065744" lon="118.80361029832723">
        <ele>14.44437718293733</ele>
        <time>2026-09-08T10:30:05Z</time>
      </trkpt>
      <trkpt lat="32.05200694031744" lon="118.80365640170447">
        <ele>14.777304886794752</ele>
        <time>2026-09-08T10:30:11Z</time>
      </trkpt>
      <trkpt lat="32.051907170497415" lon="118.80380169700457">
        <ele>15.559417008376784</ele>
        <time>2026-09-08T10:30:17Z</time>
      </trkpt>
      <trkpt lat="32.05187146760147" lon="118.8039770460795">
        <ele>15.435229538894362</ele>
        <time>2026-09-08T10:30:23Z</time>
      </trkpt>
      <trkpt lat="32.051886696160054" lon="118.80410629990152">
        <ele>13.514296769118971</ele>
        <time>2026-09-08T10:30:26Z</time>
      </trkpt>
      <trkpt lat="32.05191587912529" lon="118.80420749723382">
        <ele>11.889298676467604</ele>
        <time>2026-09-08T10:30:29Z</time>
      </trkpt>
      <trkpt lat="32.05202317063695" lon="118.80436079068147">
        <ele>14.44437718293733</ele>
        <time>2026-09-08T10:30:35Z</time>
      </trkpt>
      <trkpt lat="32.05207926541215" lon="118.80440787877556">
        <ele>14.65311741731233</ele>
        <time>2026-09-08T10:30:38Z</time>
      </trkpt>
      <trkpt lat="32.05239049417777" lon="118.80449903082473">
        <ele>12.140315293288893</ele>
        <time>2026-09-08T10:30:53Z</time>
      </trkpt>
      <trkpt lat="32.052671704072324" lon="118.80458317185435">
        <ele>15.318970917678541</ele>
        <time>2026-09-08T10:31:05Z</time>
      </trkpt>
      <trkpt lat="32.052934946884285" lon="118.80468835641011">
        <ele>15.247628449416823</ele>
        <time>2026-09-08T10:31:17Z</time>
      </trkpt>
      <trkpt lat="32.053129026970204" lon="118.80470938034766">
        <ele>14.79844212434358</ele>
        <time>2026-09-08T10:31:26Z</time>
      </trkpt>
      <trkpt lat="32.05322297946935" lon="118.8046702941487">
        <ele>13.400679825759596</ele>
        <time>2026-09-08T10:31:29Z</time>
      </trkpt>
      <trkpt lat="32.05334177798668" lon="118.80454002485173">
        <ele>14.98604321382112</ele>
        <time>2026-09-08T10:31:35Z</time>
      </trkpt>
      <trkpt lat="32.0534014953157" lon="118.80437068387103">
        <ele>14.69539379975862</ele>
        <time>2026-09-08T10:31:41Z</time>
      </trkpt>
      <trkpt lat="32.05338523632963" lon="118.80422439589968">
        <ele>14.642548798537916</ele>
        <time>2026-09-08T10:31:47Z</time>
      </trkpt>
      <trkpt lat="32.05336010665825" lon="118.80415325756607">
        <ele>5.458004235244459</ele>
        <time>2026-09-08T10:31:50Z</time>
      </trkpt>
      <trkpt lat="32.05321676747845" lon="118.80397692245646">
        <ele>14.203931092239088</ele>
        <time>2026-09-08T10:31:59Z</time>
      </trkpt>
      <trkpt lat="32.05290748585567" lon="118.803854709754">
        <ele>12.681981324172682</ele>
        <time>2026-09-08T10:32:14Z</time>
      </trkpt>
      <trkpt lat="32.05279233649839" lon="118.80378358012281">
        <ele>14.412669419265455</ele>
        <time>2026-09-08T10:32:20Z</time>
      </trkpt>
      <trkpt lat="32.05260025363347" lon="118.80376055237153">
        <ele>14.370393036819166</ele>
        <time>2026-09-08T10:32:29Z</time>
      </trkpt>
      <trkpt lat="32.05227399813445" lon="118.80365537519036">
        <ele>14.73502659699983</ele>
        <time>2026-09-08T10:32:41Z</time>
      </trkpt>
      <trkpt lat="32.0521259285818" lon="118.80363434738715">
        <ele>14.026898621535963</ele>
        <time>2026-09-08T10:32:47Z</time>
      </trkpt>
      <trkpt lat="32.052041928983655" lon="118.80364537679681">
        <ele>14.787873505569166</ele>
        <time>2026-09-08T10:32:50Z</time>
      </trkpt>
      <trkpt lat="32.05197997954542" lon="118.80368245546276">
        <ele>13.725678681350416</ele>
        <time>2026-09-08T10:32:53Z</time>
      </trkpt>
      <trkpt lat="32.05190519967358" lon="118.80381873075497">
        <ele>14.713889359451002</ele>
        <time>2026-09-08T10:32:59Z</time>
      </trkpt>
      <trkpt lat="32.05187070656448" lon="118.8041143172074">
        <ele>9.492756127334303</ele>
        <time>2026-09-08T10:33:08Z</time>
      </trkpt>
      <trkpt lat="32.051880867819655" lon="118.80420549648858">
        <ele>16.164498566604323</ele>
        <time>2026-09-08T10:33:12Z</time>
      </trkpt>
      <trkpt lat="32.051995143387" lon="118.80434876945432">
        <ele>14.476084946609205</ele>
        <time>2026-09-08T10:33:18Z</time>
      </trkpt>
      <trkpt lat="32.05225839641091" lon="118.80445996552632">
        <ele>10.848242997146315</ele>
        <time>2026-09-08T10:33:30Z</time>
      </trkpt>
      <trkpt lat="32.052526629666225" lon="118.80455913749596">
        <ele>15.04945874116487</ele>
        <time>2026-09-08T10:33:42Z</time>
      </trkpt>
      <trkpt lat="32.05270171251341" lon="118.80458417108434">
        <ele>15.268767594314284</ele>
        <time>2026-09-08T10:33:48Z</time>
      </trkpt>
      <trkpt lat="32.05283085351943" lon="118.80464828643255">
        <ele>13.683402298904127</ele>
        <time>2026-09-08T10:33:54Z</time>
      </trkpt>
      <trkpt lat="32.05300399034151" lon="118.8047043818902">
        <ele>15.078522919631666</ele>
        <time>2026-09-08T10:34:00Z</time>
      </trkpt>
      <trkpt lat="32.05315100203496" lon="118.80469234451458">
        <ele>15.675677536941237</ele>
        <time>2026-09-08T10:34:06Z</time>
      </trkpt>
      <trkpt lat="32.053279893926714" lon="118.8046141775837">
        <ele>16.70616459748811</ele>
        <time>2026-09-08T10:34:12Z</time>
      </trkpt>
      <trkpt lat="32.053374697711035" lon="118.80448992252093">
        <ele>11.99498867890901</ele>
        <time>2026-09-08T10:34:18Z</time>
      </trkpt>
      <trkpt lat="32.053408558150984" lon="118.80440575266543">
        <ele>14.359824418044752</ele>
        <time>2026-09-08T10:34:21Z</time>
      </trkpt>
      <trkpt lat="32.05341727667993" lon="118.80424343060616">
        <ele>14.111451386428541</ele>
        <time>2026-09-08T10:34:27Z</time>
      </trkpt>
      <trkpt lat="32.05339514066712" lon="118.80416828405318">
        <ele>13.818158387160963</ele>
        <time>2026-09-08T10:34:30Z</time>
      </trkpt>
      <trkpt lat="32.053261815894686" lon="118.80399896182422">
        <ele>10.148040055251784</ele>
        <time>2026-09-08T10:34:39Z</time>
      </trkpt>
      <trkpt lat="32.05313869252675" lon="118.80394386438486">
        <ele>14.225068329787916</ele>
        <time>2026-09-08T10:34:45Z</time>
      </trkpt>
      <trkpt lat="32.05307053263807" lon="118.80386070662338">
        <ele>5.344386338210768</ele>
        <time>2026-09-08T10:34:48Z</time>
      </trkpt>
      <trkpt lat="32.05275739490756" lon="118.80382165836703">
        <ele>14.48665356538362</ele>
        <time>2026-09-08T10:35:03Z</time>
      </trkpt>
      <trkpt lat="32.05263921530545" lon="118.8037334955029">
        <ele>12.806166886306471</ele>
        <time>2026-09-08T10:35:09Z</time>
      </trkpt>
      <trkpt lat="32.05226496132527" lon="118.80363533658203">
        <ele>14.328116654372877</ele>
        <time>2026-09-08T10:35:24Z</time>
      </trkpt>
      <trkpt lat="32.05221090752672" lon="118.80361129423177">
        <ele>13.535435914016432</ele>
        <time>2026-09-08T10:35:27Z</time>
      </trkpt>
      <trkpt lat="32.05213690145871" lon="118.80361731286135">
        <ele>14.246207474685377</ele>
        <time>2026-09-08T10:35:30Z</time>
      </trkpt>
      <trkpt lat="32.05198399262265" lon="118.80368946890225">
        <ele>14.11937832734651</ele>
        <time>2026-09-08T10:35:36Z</time>
      </trkpt>
      <trkpt lat="32.051908229969534" lon="118.80383576405058">
        <ele>13.934418915725416</ele>
        <time>2026-09-08T10:35:42Z</time>
      </trkpt>
      <trkpt lat="32.051880382382606" lon="118.80392694641057">
        <ele>13.358403443313307</ele>
        <time>2026-09-08T10:35:46Z</time>
      </trkpt>
      <trkpt lat="32.051904778794544" lon="118.80415138733454">
        <ele>14.79844212434358</ele>
        <time>2026-09-08T10:35:55Z</time>
      </trkpt>
      <trkpt lat="32.05195200431814" lon="118.80427462668818">
        <ele>14.026898621535963</ele>
        <time>2026-09-08T10:35:58Z</time>
      </trkpt>
      <trkpt lat="32.052012147179624" lon="118.80434876789197">
        <ele>11.389909028030104</ele>
        <time>2026-09-08T10:36:01Z</time>
      </trkpt>
      <trkpt lat="32.05220834672387" lon="118.80443792645404">
        <ele>13.995190857864088</ele>
        <time>2026-09-08T10:36:10Z</time>
      </trkpt>
      <trkpt lat="32.05235543906569" lon="118.80447198043366">
        <ele>2.887070893264479</ele>
        <time>2026-09-08T10:36:16Z</time>
      </trkpt>
      <trkpt lat="32.05263671555893" lon="118.80459419692913">
        <ele>14.129946946120924</ele>
        <time>2026-09-08T10:36:28Z</time>
      </trkpt>
      <trkpt lat="32.052960933374955" lon="118.804677332146">
        <ele>14.370393036819166</ele>
        <time>2026-09-08T10:36:41Z</time>
      </trkpt>
      <trkpt lat="32.05310601306964" lon="118.80470437251641">
        <ele>11.659421204543776</ele>
        <time>2026-09-08T10:36:47Z</time>
      </trkpt>
      <trkpt lat="32.05323796000127" lon="118.80465726692209">
        <ele>13.609418152785963</ele>
        <time>2026-09-08T10:36:53Z</time>
      </trkpt>
      <trkpt lat="32.05331088154019" lon="118.80460315287282">
        <ele>14.317548035598463</ele>
        <time>2026-09-08T10:36:56Z</time>
      </trkpt>
      <trkpt lat="32.053393638873885" lon="118.80445384930489">
        <ele>14.23563694856233</ele>
        <time>2026-09-08T10:37:02Z</time>
      </trkpt>
      <trkpt lat="32.053426415126424" lon="118.80432158439352">
        <ele>13.609418152785963</ele>
        <time>2026-09-08T10:37:08Z</time>
      </trkpt>
      <trkpt lat="32.05341922991561" lon="118.80421637692483">
        <ele>13.213076828933424</ele>
        <time>2026-09-08T10:37:11Z</time>
      </trkpt>
      <trkpt lat="32.05335197735261" lon="118.80408011379396">
        <ele>13.995190857864088</ele>
        <time>2026-09-08T10:37:17Z</time>
      </trkpt>
      <trkpt lat="32.053248725755864" lon="118.80394886415796">
        <ele>12.452101944900221</ele>
        <time>2026-09-08T10:37:23Z</time>
      </trkpt>
      <trkpt lat="32.05296346173292" lon="118.80383366312982">
        <ele>13.942345856643385</ele>
        <time>2026-09-08T10:37:35Z</time>
      </trkpt>
      <trkpt lat="32.0526922758849" lon="118.80376154588879">
        <ele>13.974051712966627</ele>
        <time>2026-09-08T10:37:50Z</time>
      </trkpt>
      <trkpt lat="32.05262320129047" lon="118.80372748513437">
        <ele>13.588280915237135</ele>
        <time>2026-09-08T10:37:53Z</time>
      </trkpt>
      <trkpt lat="32.05230997484125" lon="118.80363733638893">
        <ele>10.742551087356276</ele>
        <time>2026-09-08T10:38:05Z</time>
      </trkpt>
      <trkpt lat="32.05216585226491" lon="118.8035852471223">
        <ele>14.328116654372877</ele>
        <time>2026-09-08T10:38:11Z</time>
      </trkpt>
      <trkpt lat="32.05199694330731" lon="118.80365940853959">
        <ele>12.555152176833815</ele>
        <time>2026-09-08T10:38:20Z</time>
      </trkpt>
      <trkpt lat="32.051875288845714" lon="118.80387384214276">
        <ele>12.399256943679518</ele>
        <time>2026-09-08T10:38:27Z</time>
      </trkpt>
      <trkpt lat="32.051876720131666" lon="118.80412133051273">
        <ele>13.974051712966627</ele>
        <time>2026-09-08T10:38:36Z</time>
      </trkpt>
      <trkpt lat="32.05190186900896" lon="118.80420349059666">
        <ele>14.01633000276155</ele>
        <time>2026-09-08T10:38:39Z</time>
      </trkpt>
      <trkpt lat="32.05198914204841" lon="118.80434877000575">
        <ele>13.630557297683424</ele>
        <time>2026-09-08T10:38:45Z</time>
      </trkpt>
      <trkpt lat="32.052043248626305" lon="118.80440287216315">
        <ele>13.630557297683424</ele>
        <time>2026-09-08T10:38:48Z</time>
      </trkpt>
      <trkpt lat="32.05236150698694" lon="118.80451005533337">
        <ele>13.088891266799635</ele>
        <time>2026-09-08T10:39:03Z</time>
      </trkpt>
      <trkpt lat="32.05262772232086" lon="118.80459920769245">
        <ele>14.129946946120924</ele>
        <time>2026-09-08T10:39:15Z</time>
      </trkpt>
      <trkpt lat="32.052890942343254" lon="118.80469136641986">
        <ele>12.618565796828932</ele>
        <time>2026-09-08T10:39:27Z</time>
      </trkpt>
      <trkpt lat="32.05303000140076" lon="118.80470738546774">
        <ele>13.704541443801588</ele>
        <time>2026-09-08T10:39:33Z</time>
      </trkpt>
      <trkpt lat="32.05315898100359" lon="118.80467931792678">
        <ele>13.213076828933424</ele>
        <time>2026-09-08T10:39:39Z</time>
      </trkpt>
      <trkpt lat="32.05332576916408" lon="118.80453702036321">
        <ele>12.827306031203932</ele>
        <time>2026-09-08T10:39:48Z</time>
      </trkpt>
      <trkpt lat="32.053363649709055" lon="118.80446387191273">
        <ele>7.616741417861647</ele>
        <time>2026-09-08T10:39:51Z</time>
      </trkpt>
      <trkpt lat="32.05340637392896" lon="118.80430054459505">
        <ele>12.576289414382643</ele>
        <time>2026-09-08T10:39:57Z</time>
      </trkpt>
      <trkpt lat="32.053386070515565" lon="118.80412920765748">
        <ele>13.046614884353346</ele>
        <time>2026-09-08T10:40:03Z</time>
      </trkpt>
      <trkpt lat="32.05334993849028" lon="118.80405807044463">
        <ele>14.129946946120924</ele>
        <time>2026-09-08T10:40:07Z</time>
      </trkpt>
      <trkpt lat="32.05316261764573" lon="118.8038977712667">
        <ele>13.567141770339674</ele>
        <time>2026-09-08T10:40:16Z</time>
      </trkpt>
      <trkpt lat="32.05287839573859" lon="118.8038066176262">
        <ele>12.922427414870924</ele>
        <time>2026-09-08T10:40:28Z</time>
      </trkpt>
      <trkpt lat="32.052681264724015" lon="118.8037565370315">
        <ele>13.191939591384596</ele>
        <time>2026-09-08T10:40:37Z</time>
      </trkpt>
      <trkpt lat="32.05248609240223" lon="118.80368240895228">
        <ele>13.088891266799635</ele>
        <time>2026-09-08T10:40:46Z</time>
      </trkpt>
      <trkpt lat="32.052255945398855" lon="118.80362732163694">
        <ele>13.76531338594026</ele>
        <time>2026-09-08T10:40:58Z</time>
      </trkpt>
      <trkpt lat="32.05207502162766" lon="118.80369447040053">
        <ele>8.491334198928541</ele>
        <time>2026-09-08T10:41:07Z</time>
      </trkpt>
      <trkpt lat="32.05195615703825" lon="118.8037876648613">
        <ele>10.8376743783719</ele>
        <time>2026-09-08T10:41:13Z</time>
      </trkpt>
      <trkpt lat="32.051914259195925" lon="118.8038517951">
        <ele>13.514296769118971</ele>
        <time>2026-09-08T10:41:16Z</time>
      </trkpt>
      <trkpt lat="32.0518908822884" lon="118.80421250943664">
        <ele>13.223647355056471</ele>
        <time>2026-09-08T10:41:28Z</time>
      </trkpt>
      <trkpt lat="32.05191705423866" lon="118.80430769532222">
        <ele>13.59884953401155</ele>
        <time>2026-09-08T10:41:31Z</time>
      </trkpt>
      <trkpt lat="32.05197017631711" lon="118.80437081538778">
        <ele>12.586858033157057</ele>
        <time>2026-09-08T10:41:34Z</time>
      </trkpt>
      <trkpt lat="32.05210534651907" lon="118.80445096172247">
        <ele>12.713687180495924</ele>
        <time>2026-09-08T10:41:40Z</time>
      </trkpt>
      <trkpt lat="32.05237752983284" lon="118.80452107570837">
        <ele>13.683402298904127</ele>
        <time>2026-09-08T10:41:52Z</time>
      </trkpt>
      <trkpt lat="32.05266673452256" lon="118.80460120808291">
        <ele>13.141736268020338</ele>
        <time>2026-09-08T10:42:04Z</time>
      </trkpt>
      <trkpt lat="32.05273079965322" lon="118.80463025984005">
        <ele>13.329337357497877</ele>
        <time>2026-09-08T10:42:07Z</time>
      </trkpt>
      <trkpt lat="32.05303996326307" lon="118.80468433880594">
        <ele>11.847022294021315</ele>
        <time>2026-09-08T10:42:20Z</time>
      </trkpt>
      <trkpt lat="32.05312100412599" lon="118.80469735721562">
        <ele>12.880151032424635</ele>
        <time>2026-09-08T10:42:23Z</time>
      </trkpt>
      <trkpt lat="32.05319398353698" lon="118.80467630874465">
        <ele>13.20250821015901</ele>
        <time>2026-09-08T10:42:26Z</time>
      </trkpt>
      <trkpt lat="32.053302858714055" lon="118.80459112976087">
        <ele>13.527508973098463</ele>
        <time>2026-09-08T10:42:32Z</time>
      </trkpt>
      <trkpt lat="32.053359711892334" lon="118.80449994375591">
        <ele>13.181370972610182</ele>
        <time>2026-09-08T10:42:35Z</time>
      </trkpt>
      <trkpt lat="32.0534124347569" lon="118.80433461145887">
        <ele>13.255355118728346</ele>
        <time>2026-09-08T10:42:41Z</time>
      </trkpt>
      <trkpt lat="32.05341528847573" lon="118.80425044466163">
        <ele>12.597428559280104</ele>
        <time>2026-09-08T10:42:44Z</time>
      </trkpt>
      <trkpt lat="32.05332190257223" lon="118.8040410393844">
        <ele>12.795598267532057</ele>
        <time>2026-09-08T10:42:53Z</time>
      </trkpt>
      <trkpt lat="32.053211689602925" lon="118.80393283593195">
        <ele>10.512673615432448</ele>
        <time>2026-09-08T10:42:59Z</time>
      </trkpt>
      <trkpt lat="32.05307652700221" lon="118.80385669817056">
        <ele>12.940922974563307</ele>
        <time>2026-09-08T10:43:05Z</time>
      </trkpt>
      <trkpt lat="32.05277129872014" lon="118.8037645445485">
        <ele>11.66998982331819</ele>
        <time>2026-09-08T10:43:20Z</time>
      </trkpt>
      <trkpt lat="32.05249410985233" lon="118.80369142596923">
        <ele>12.494380234695143</ele>
        <time>2026-09-08T10:43:32Z</time>
      </trkpt>
      <trkpt lat="32.052283934246034" lon="118.80361729934923">
        <ele>11.02527546784944</ele>
        <time>2026-09-08T10:43:41Z</time>
      </trkpt>
      <trkpt lat="32.05212787509696" lon="118.8036032860919">
        <ele>12.660842179275221</ele>
        <time>2026-09-08T10:43:47Z</time>
      </trkpt>
      <trkpt lat="32.05198299936263" lon="118.80369347688432">
        <ele>12.119176148391432</ele>
        <time>2026-09-08T10:43:53Z</time>
      </trkpt>
      <trkpt lat="32.051931088751864" lon="118.80375159610115">
        <ele>13.213076828933424</ele>
        <time>2026-09-08T10:43:56Z</time>
      </trkpt>
      <trkpt lat="32.05190221643112" lon="118.80382875077798">
        <ele>12.441533326125807</ele>
        <time>2026-09-08T10:43:59Z</time>
      </trkpt>
      <trkpt lat="32.051861502016244" lon="118.80399808852434">
        <ele>13.849866150832838</ele>
        <time>2026-09-08T10:44:06Z</time>
      </trkpt>
      <trkpt lat="32.05187474763869" lon="118.80413736237217">
        <ele>12.045192002273268</ele>
        <time>2026-09-08T10:44:09Z</time>
      </trkpt>
      <trkpt lat="32.05195703517118" lon="118.80429165992634">
        <ele>13.20250821015901</ele>
        <time>2026-09-08T10:44:15Z</time>
      </trkpt>
      <trkpt lat="32.052057230739045" lon="118.80439084706798">
        <ele>13.141736268020338</ele>
        <time>2026-09-08T10:44:21Z</time>
      </trkpt>
      <trkpt lat="32.05230740909084" lon="118.80446096300818">
        <ele>13.025475739455885</ele>
        <time>2026-09-08T10:44:33Z</time>
      </trkpt>
      <trkpt lat="32.05261172226129" lon="118.80460121313745">
        <ele>12.774461029983229</ele>
        <time>2026-09-08T10:44:48Z</time>
      </trkpt>
      <trkpt lat="32.052910906439664" lon="118.80466831884495">
        <ele>13.152304886794752</ele>
        <time>2026-09-08T10:45:03Z</time>
      </trkpt>
      <trkpt lat="32.053026997221885" lon="118.80470538176547">
        <ele>12.211655854201979</ele>
        <time>2026-09-08T10:45:09Z</time>
      </trkpt>
      <trkpt lat="32.05325092254735" lon="118.80463422000267">
        <ele>11.868159531570143</ele>
        <time>2026-09-08T10:45:18Z</time>
      </trkpt>
      <trkpt lat="32.05335566544589" lon="118.80447389250023">
        <ele>12.724257706618971</ele>
        <time>2026-09-08T10:45:27Z</time>
      </trkpt>
      <trkpt lat="32.05339540472213" lon="118.80431958327699">
        <ele>13.152304886794752</ele>
        <time>2026-09-08T10:45:33Z</time>
      </trkpt>
      <trkpt lat="32.053382111558605" lon="118.804153255544">
        <ele>13.683402298904127</ele>
        <time>2026-09-08T10:45:39Z</time>
      </trkpt>
      <trkpt lat="32.05335297233629" lon="118.80407710776522">
        <ele>11.054339646316237</ele>
        <time>2026-09-08T10:45:42Z</time>
      </trkpt>
      <trkpt lat="32.05322674876852" lon="118.8039648978112">
        <ele>11.796818970657057</ele>
        <time>2026-09-08T10:45:49Z</time>
      </trkpt>
      <trkpt lat="32.05292644303058" lon="118.8038276546816">
        <ele>12.993769883132643</ele>
        <time>2026-09-08T10:46:01Z</time>
      </trkpt>
      <trkpt lat="32.05280636749446" lon="118.80379961042341">
        <ele>10.293364762283034</ele>
        <time>2026-09-08T10:46:07Z</time>
      </trkpt>
      <trkpt lat="32.05252512024585" lon="118.80369342706487">
        <ele>12.452101944900221</ele>
        <time>2026-09-08T10:46:19Z</time>
      </trkpt>
      <trkpt lat="32.05226490913334" lon="118.80360527744115">
        <ele>11.619786499953932</ele>
        <time>2026-09-08T10:46:31Z</time>
      </trkpt>
      <trkpt lat="32.052186863905995" lon="118.80358925307523">
        <ele>11.596005677200026</ele>
        <time>2026-09-08T10:46:34Z</time>
      </trkpt>
      <trkpt lat="32.052115872420174" lon="118.80360328719493">
        <ele>12.859013794875807</ele>
        <time>2026-09-08T10:46:37Z</time>
      </trkpt>
      <trkpt lat="32.05200398664044" lon="118.80368345522915">
        <ele>12.618565796828932</ele>
        <time>2026-09-08T10:46:43Z</time>
      </trkpt>
      <trkpt lat="32.05191123586754" lon="118.80383876969968">
        <ele>13.036046265578932</ele>
        <time>2026-09-08T10:46:49Z</time>
      </trkpt>
      <trkpt lat="32.05188348947378" lon="118.80398806672723">
        <ele>12.607997178054518</ele>
        <time>2026-09-08T10:46:55Z</time>
      </trkpt>
      <trkpt lat="32.05188678875795" lon="118.80415940483009">
        <ele>11.17060017488069</ele>
        <time>2026-09-08T10:47:01Z</time>
      </trkpt>
      <trkpt lat="32.05201814851818" lon="118.80434876734054">
        <ele>13.339907883620924</ele>
        <time>2026-09-08T10:47:10Z</time>
      </trkpt>
      <trkpt lat="32.052134319709566" lon="118.80443192134688">
        <ele>13.223647355056471</ele>
        <time>2026-09-08T10:47:16Z</time>
      </trkpt>
      <trkpt lat="32.05247058387282" lon="118.80454010489909">
        <ele>12.629134415603346</ele>
        <time>2026-09-08T10:47:31Z</time>
      </trkpt>
      <trkpt lat="32.05275681597381" lon="118.80463626937757">
        <ele>13.131167649245924</ele>
        <time>2026-09-08T10:47:44Z</time>
      </trkpt>
      <trkpt lat="32.05299898220679" lon="118.80470037439403">
        <ele>12.253932236648268</ele>
        <time>2026-09-08T10:47:56Z</time>
      </trkpt>
      <trkpt lat="32.05315398164442" lon="118.80468032037484">
        <ele>13.20250821015901</ele>
        <time>2026-09-08T10:48:02Z</time>
      </trkpt>
      <trkpt lat="32.05331977133325" lon="118.80453902488729">
        <ele>7.836050271011061</ele>
        <time>2026-09-08T10:48:11Z</time>
      </trkpt>
      <trkpt lat="32.05338352631925" lon="118.80439072520167">
        <ele>12.597428559280104</ele>
        <time>2026-09-08T10:48:17Z</time>
      </trkpt>
      <trkpt lat="32.05339739816859" lon="118.80431557516198">
        <ele>11.680558442092604</ele>
        <time>2026-09-08T10:48:20Z</time>
      </trkpt>
      <trkpt lat="32.05332999340966" lon="118.80409213956473">
        <ele>13.160231827712721</ele>
        <time>2026-09-08T10:48:29Z</time>
      </trkpt>
      <trkpt lat="32.05322372890907" lon="118.80395387634012">
        <ele>12.951493500686354</ele>
        <time>2026-09-08T10:48:35Z</time>
      </trkpt>
      <trkpt lat="32.05315462458233" lon="118.80390278188212">
        <ele>12.586858033157057</ele>
        <time>2026-09-08T10:48:38Z</time>
      </trkpt>
      <trkpt lat="32.052816380177646" lon="118.80380562135063">
        <ele>12.671410798049635</ele>
        <time>2026-09-08T10:48:53Z</time>
      </trkpt>
      <trkpt lat="32.05255315086129" lon="118.80370745210898">
        <ele>11.807387589431471</ele>
        <time>2026-09-08T10:49:05Z</time>
      </trkpt>
      <trkpt lat="32.05223795530339" lon="118.80363533906385">
        <ele>12.618565796828932</ele>
        <time>2026-09-08T10:49:18Z</time>
      </trkpt>
      <trkpt lat="32.05209292818039" lon="118.80363835830694">
        <ele>12.785029648757643</ele>
        <time>2026-09-08T10:49:24Z</time>
      </trkpt>
      <trkpt lat="32.052027976329384" lon="118.80367443527214">
        <ele>12.962062119460768</ele>
        <time>2026-09-08T10:49:27Z</time>
      </trkpt>
      <trkpt lat="32.05197805570142" lon="118.80372654244788">
        <ele>11.8364536752469</ele>
        <time>2026-09-08T10:49:30Z</time>
      </trkpt>
      <trkpt lat="32.051896436539884" lon="118.80395600226319">
        <ele>15.215920685744948</ele>
        <time>2026-09-08T10:49:39Z</time>
      </trkpt>
      <trkpt lat="32.05191589835626" lon="118.80421851902574">
        <ele>12.420396088576979</ele>
        <time>2026-09-08T10:49:48Z</time>
      </trkpt>
      <trkpt lat="32.051946032716984" lon="118.80429166093728">
        <ele>13.05718350312776</ele>
        <time>2026-09-08T10:49:51Z</time>
      </trkpt>
      <trkpt lat="32.05205224363036" lon="118.80439886339958">
        <ele>12.380761383987135</ele>
        <time>2026-09-08T10:49:57Z</time>
      </trkpt>
      <trkpt lat="32.05236549911685" lon="118.80450504503666">
        <ele>13.20250821015901</ele>
        <time>2026-09-08T10:50:12Z</time>
      </trkpt>
      <trkpt lat="32.052497589893065" lon="118.80454010241775">
        <ele>12.296208619094557</ele>
        <time>2026-09-08T10:50:18Z</time>
      </trkpt>
      <trkpt lat="32.052753820567816" lon="118.80463927561696">
        <ele>11.942143677688307</ele>
        <time>2026-09-08T10:50:30Z</time>
      </trkpt>
      <trkpt lat="32.052886885299515" lon="118.80465930315577">
        <ele>12.034623383498854</ele>
        <time>2026-09-08T10:50:36Z</time>
      </trkpt>
      <trkpt lat="32.05295896978283" lon="118.80469837409227">
        <ele>13.485232590652174</ele>
        <time>2026-09-08T10:50:39Z</time>
      </trkpt>
      <trkpt lat="32.053098018307885" lon="118.80470838120755">
        <ele>5.5108492364651624</ele>
        <time>2026-09-08T10:50:45Z</time>
      </trkpt>
      <trkpt lat="32.053167988273266" lon="118.80468232306542">
        <ele>11.440112351394362</ele>
        <time>2026-09-08T10:50:48Z</time>
      </trkpt>
      <trkpt lat="32.053211919121594" lon="118.80463722955047">
        <ele>9.751698731399244</ele>
        <time>2026-09-08T10:50:51Z</time>
      </trkpt>
      <trkpt lat="32.05323183763671" lon="118.80458813032456">
        <ele>13.014907120681471</ele>
        <time>2026-09-08T10:50:54Z</time>
      </trkpt>
      <trkpt lat="32.05330475396943" lon="118.80453101037564">
        <ele>7.606172799087233</ele>
        <time>2026-09-08T10:50:57Z</time>
      </trkpt>
      <trkpt lat="32.05338150311479" lon="118.80437769959516">
        <ele>12.922427414870924</ele>
        <time>2026-09-08T10:51:03Z</time>
      </trkpt>
      <trkpt lat="32.053395374977924" lon="118.80430254957115">
        <ele>11.825883149123854</ele>
        <time>2026-09-08T10:51:06Z</time>
      </trkpt>
      <trkpt lat="32.05337507854815" lon="118.80413522054735">
        <ele>12.264500855422682</ele>
        <time>2026-09-08T10:51:12Z</time>
      </trkpt>
      <trkpt lat="32.05315463504557" lon="118.80390879373874">
        <ele>13.432385682082838</ele>
        <time>2026-09-08T10:51:24Z</time>
      </trkpt>
      <trkpt lat="32.0530315152319" lon="118.80385570033157">
        <ele>12.19051861665315</ele>
        <time>2026-09-08T10:51:30Z</time>
      </trkpt>
      <trkpt lat="32.052835436691815" lon="118.80383567884509">
        <ele>11.81531453034944</ele>
        <time>2026-09-08T10:51:39Z</time>
      </trkpt>
      <trkpt lat="32.05256822385733" lon="118.80374752965622">
        <ele>13.234215973830885</ele>
        <time>2026-09-08T10:51:54Z</time>
      </trkpt>
      <trkpt lat="32.05233096560519" lon="118.80362931868599">
        <ele>12.02405476472444</ele>
        <time>2026-09-08T10:52:06Z</time>
      </trkpt>
      <trkpt lat="32.05208096726758" lon="118.80366240673462">
        <ele>13.110028504348463</ele>
        <time>2026-09-08T10:52:18Z</time>
      </trkpt>
      <trkpt lat="32.05199404360009" lon="118.8037175232198">
        <ele>11.596005677200026</ele>
        <time>2026-09-08T10:52:21Z</time>
      </trkpt>
      <trkpt lat="32.051902247803184" lon="118.80384678632723">
        <ele>12.922427414870924</ele>
        <time>2026-09-08T10:52:27Z</time>
      </trkpt>
      <trkpt lat="32.05187059304844" lon="118.80404918857543">
        <ele>12.660842179275221</ele>
        <time>2026-09-08T10:52:33Z</time>
      </trkpt>
      <trkpt lat="32.05192189794662" lon="118.80421751649314">
        <ele>12.816737412429518</ele>
        <time>2026-09-08T10:52:39Z</time>
      </trkpt>
      <trkpt lat="32.05202117719232" lon="118.80436479879926">
        <ele>13.141736268020338</ele>
        <time>2026-09-08T10:52:46Z</time>
      </trkpt>
      <trkpt lat="32.05207827744658" lon="118.8044148927574">
        <ele>25.888064621902174</ele>
        <time>2026-09-08T10:52:49Z</time>
      </trkpt>
      <trkpt lat="32.05235646732127" lon="118.80448801210784">
        <ele>12.034623383498854</ele>
        <time>2026-09-08T10:53:04Z</time>
      </trkpt>
      <trkpt lat="32.052622666848166" lon="118.80456814655388">
        <ele>11.66998982331819</ele>
        <time>2026-09-08T10:53:22Z</time>
      </trkpt>
      <trkpt lat="32.052680671011885" lon="118.80456313128985">
        <ele>12.327916382766432</ele>
        <time>2026-09-08T10:53:25Z</time>
      </trkpt>
      <trkpt lat="32.05281482890168" lon="118.80463626404735">
        <ele>11.545802353835768</ele>
        <time>2026-09-08T10:53:31Z</time>
      </trkpt>
      <trkpt lat="32.05307596426531" lon="118.8046803275431">
        <ele>12.785029648757643</ele>
        <time>2026-09-08T10:53:43Z</time>
      </trkpt>
      <trkpt lat="32.05314495858229" lon="118.8046682973402">
        <ele>12.755963562942213</ele>
        <time>2026-09-08T10:53:46Z</time>
      </trkpt>
      <trkpt lat="32.053274812147826" lon="118.80456808663352">
        <ele>12.441533326125807</ele>
        <time>2026-09-08T10:53:52Z</time>
      </trkpt>
      <trkpt lat="32.05336457636819" lon="118.80442178845885">
        <ele>12.962062119460768</ele>
        <time>2026-09-08T10:53:58Z</time>
      </trkpt>
      <trkpt lat="32.05338730497478" lon="118.80426347299885">
        <ele>13.892142533279127</ele>
        <time>2026-09-08T10:54:04Z</time>
      </trkpt>
      <trkpt lat="32.05333194495739" lon="118.80406408397097">
        <ele>11.450680970168776</ele>
        <time>2026-09-08T10:54:13Z</time>
      </trkpt>
      <trkpt lat="32.0532137371489" lon="118.80395988912093">
        <ele>12.211655854201979</ele>
        <time>2026-09-08T10:54:19Z</time>
      </trkpt>
      <trkpt lat="32.05291543535095" lon="118.80382464976833">
        <ele>9.376496552444166</ele>
        <time>2026-09-08T10:54:32Z</time>
      </trkpt>
      <trkpt lat="32.05277136143551" lon="118.80380061561489">
        <ele>10.105763672805494</ele>
        <time>2026-09-08T10:54:38Z</time>
      </trkpt>
      <trkpt lat="32.052517174175144" lon="118.80372549093144">
        <ele>11.241940735793776</ele>
        <time>2026-09-08T10:54:50Z</time>
      </trkpt>
      <trkpt lat="32.052299967391185" lon="118.80363433139327">
        <ele>12.5366547097928</ele>
        <time>2026-09-08T10:54:59Z</time>
      </trkpt>
      <trkpt lat="32.05216893643342" lon="118.80363334146305">
        <ele>12.639704941726393</ele>
        <time>2026-09-08T10:55:05Z</time>
      </trkpt>
      <trkpt lat="32.05203002725681" lon="118.80370349229081">
        <ele>12.618565796828932</ele>
        <time>2026-09-08T10:55:11Z</time>
      </trkpt>
      <trkpt lat="32.051933193722896" lon="118.80381171435927">
        <ele>10.512673615432448</ele>
        <time>2026-09-08T10:55:17Z</time>
      </trkpt>
      <trkpt lat="32.05187846916337" lon="118.80397704543611">
        <ele>-32.88403201200896</ele>
        <time>2026-09-08T10:55:23Z</time>
      </trkpt>
      <trkpt lat="32.05188377935121" lon="118.80415439520493">
        <ele>11.712266205764479</ele>
        <time>2026-09-08T10:55:29Z</time>
      </trkpt>
      <trkpt lat="32.0520151916081" lon="118.8043738172031">
        <ele>12.816737412429518</ele>
        <time>2026-09-08T10:55:38Z</time>
      </trkpt>
      <trkpt lat="32.052285430462504" lon="118.80447599480794">
        <ele>12.39133000276155</ele>
        <time>2026-09-08T10:55:51Z</time>
      </trkpt>
      <trkpt lat="32.05246858167399" lon="118.80453910309656">
        <ele>12.494380234695143</ele>
        <time>2026-09-08T10:56:00Z</time>
      </trkpt>
      <trkpt lat="32.05274580650512" lon="118.80463226243714">
        <ele>12.462672471023268</ele>
        <time>2026-09-08T10:56:12Z</time>
      </trkpt>
      <trkpt lat="32.053033990006" lon="118.80470037117753">
        <ele>13.141736268020338</ele>
        <time>2026-09-08T10:56:24Z</time>
      </trkpt>
      <trkpt lat="32.0530970005336" lon="118.80469836141008">
        <ele>12.880151032424635</ele>
        <time>2026-09-08T10:56:27Z</time>
      </trkpt>
      <trkpt lat="32.05323092686293" lon="118.80463923178014">
        <ele>14.151084183669752</ele>
        <time>2026-09-08T10:56:33Z</time>
      </trkpt>
      <trkpt lat="32.053282857766" lon="118.80459313557331">
        <ele>12.650273560500807</ele>
        <time>2026-09-08T10:56:36Z</time>
      </trkpt>
      <trkpt lat="32.05338848191737" lon="118.80436467316419">
        <ele>11.984420060134596</ele>
        <time>2026-09-08T10:56:45Z</time>
      </trkpt>
      <trkpt lat="32.053391218434165" lon="118.80421337355489">
        <ele>11.931575058913893</ele>
        <time>2026-09-08T10:56:51Z</time>
      </trkpt>
      <trkpt lat="32.05332492942939" lon="118.80405606878533">
        <ele>13.871003388381666</ele>
        <time>2026-09-08T10:57:00Z</time>
      </trkpt>
      <trkpt lat="32.053219715806314" lon="118.80394686286992">
        <ele>4.05231404206819</ele>
        <time>2026-09-08T10:57:06Z</time>
      </trkpt>
      <trkpt lat="32.053060519950755" lon="118.80385469569069">
        <ele>12.940922974563307</ele>
        <time>2026-09-08T10:57:12Z</time>
      </trkpt>
      <trkpt lat="32.0527533069011" lon="118.8037715600198">
        <ele>12.19051861665315</ele>
        <time>2026-09-08T10:57:27Z</time>
      </trkpt>
      <trkpt lat="32.05249711574361" lon="118.80369443161119">
        <ele>5.458004235244459</ele>
        <time>2026-09-08T10:57:39Z</time>
      </trkpt>
      <trkpt lat="32.05215191002373" lon="118.80362031739656">
        <ele>11.619786499953932</ele>
        <time>2026-09-08T10:57:55Z</time>
      </trkpt>
      <trkpt lat="32.05194407946118" lon="118.80374458109189">
        <ele>9.503325699783034</ele>
        <time>2026-09-08T10:58:04Z</time>
      </trkpt>
      <trkpt lat="32.05186846169744" lon="118.80397404042355">
        <ele>12.39133000276155</ele>
        <time>2026-09-08T10:58:13Z</time>
      </trkpt>
      <trkpt lat="32.05188973351436" lon="118.8041273411958">
        <ele>12.182591675735182</ele>
        <time>2026-09-08T10:58:19Z</time>
      </trkpt>
      <trkpt lat="32.05193297034563" lon="118.80425759474139">
        <ele>12.359624146438307</ele>
        <time>2026-09-08T10:58:25Z</time>
      </trkpt>
      <trkpt lat="32.05198713460156" lon="118.8043447622566">
        <ele>9.595804451919264</ele>
        <time>2026-09-08T10:58:28Z</time>
      </trkpt>
      <trkpt lat="32.05223140265163" lon="118.80446698190347">
        <ele>12.119176148391432</ele>
        <time>2026-09-08T10:58:40Z</time>
      </trkpt>
      <trkpt lat="32.05236449188441" lon="118.80450103718557">
        <ele>12.84844326875276</ele>
        <time>2026-09-08T10:58:46Z</time>
      </trkpt>
      <trkpt lat="32.05267477664539" lon="118.80462425306011">
        <ele>12.462672471023268</ele>
        <time>2026-09-08T10:59:01Z</time>
      </trkpt>
      <trkpt lat="32.05280287710514" lon="118.80466532280509">
        <ele>11.284217118240065</ele>
        <time>2026-09-08T10:59:08Z</time>
      </trkpt>
      <trkpt lat="32.05289390791502" lon="118.80467132637246">
        <ele>12.629134415603346</ele>
        <time>2026-09-08T10:59:11Z</time>
      </trkpt>
      <trkpt lat="32.05304501527466" lon="118.80471339602352">
        <ele>12.39133000276155</ele>
        <time>2026-09-08T10:59:17Z</time>
      </trkpt>
      <trkpt lat="32.053093018949035" lon="118.80470938365606">
        <ele>11.588078736282057</ele>
        <time>2026-09-08T10:59:20Z</time>
      </trkpt>
      <trkpt lat="32.053246895345005" lon="118.80461919055432">
        <ele>10.930152176833815</ele>
        <time>2026-09-08T10:59:26Z</time>
      </trkpt>
      <trkpt lat="32.05335570048771" lon="118.8044939322095">
        <ele>13.421817063308424</ele>
        <time>2026-09-08T10:59:32Z</time>
      </trkpt>
      <trkpt lat="32.053404471478274" lon="118.80435665582571">
        <ele>12.285640000320143</ele>
        <time>2026-09-08T10:59:38Z</time>
      </trkpt>
      <trkpt lat="32.0534031581783" lon="118.80417730114208">
        <ele>5.479142426467604</ele>
        <time>2026-09-08T10:59:44Z</time>
      </trkpt>
      <trkpt lat="32.05337402242347" lon="118.80410315729223">
        <ele>12.922427414870924</ele>
        <time>2026-09-08T10:59:47Z</time>
      </trkpt>
      <trkpt lat="32.05327680352988" lon="118.80398994264746">
        <ele>11.450680970168776</ele>
        <time>2026-09-08T10:59:53Z</time>
      </trkpt>
      <trkpt lat="32.05303150825941" lon="118.80385169243057">
        <ele>12.327916382766432</ele>
        <time>2026-09-08T11:00:05Z</time>
      </trkpt>
      <trkpt lat="32.052985463149895" lon="118.80383165715786">
        <ele>12.005559205032057</ele>
        <time>2026-09-08T11:00:08Z</time>
      </trkpt>
      <trkpt lat="32.05289246682503" lon="118.8038456933561">
        <ele>12.264500855422682</ele>
        <time>2026-09-08T11:00:11Z</time>
      </trkpt>
      <trkpt lat="32.05285337274303" lon="118.80379660018032">
        <ele>11.973851441360182</ele>
        <time>2026-09-08T11:00:14Z</time>
      </trkpt>
      <trkpt lat="32.05257516969473" lon="118.80371546586984">
        <ele>11.046412705398268</ele>
        <time>2026-09-08T11:00:26Z</time>
      </trkpt>
      <trkpt lat="32.05228792470027" lon="118.80361128715397">
        <ele>12.420396088576979</ele>
        <time>2026-09-08T11:00:41Z</time>
      </trkpt>
      <trkpt lat="32.05218688303892" lon="118.80360027475552">
        <ele>9.294585465408034</ele>
        <time>2026-09-08T11:00:44Z</time>
      </trkpt>
      <trkpt lat="32.05210490127946" lon="118.80362132368812">
        <ele>12.774461029983229</ele>
        <time>2026-09-08T11:00:47Z</time>
      </trkpt>
      <trkpt lat="32.05199702337665" lon="118.80370549926955">
        <ele>12.222224472976393</ele>
        <time>2026-09-08T11:00:53Z</time>
      </trkpt>
      <trkpt lat="32.05192321763111" lon="118.80382674489822">
        <ele>11.825883149123854</ele>
        <time>2026-09-08T11:00:59Z</time>
      </trkpt>
      <trkpt lat="32.05189048231054" lon="118.80398305619696">
        <ele>12.119176148391432</ele>
        <time>2026-09-08T11:01:05Z</time>
      </trkpt>
      <trkpt lat="32.05192996093196" lon="118.80425258510827">
        <ele>10.335641144729323</ele>
        <time>2026-09-08T11:01:14Z</time>
      </trkpt>
      <trkpt lat="32.05202319164229" lon="118.80437281448421">
        <ele>11.786250351882643</ele>
        <time>2026-09-08T11:01:21Z</time>
      </trkpt>
      <trkpt lat="32.052146338149115" lon="118.80444093810617">
        <ele>11.52466511628694</ele>
        <time>2026-09-08T11:01:27Z</time>
      </trkpt>
      <trkpt lat="32.05253664066171" lon="118.80456414651036">
        <ele>12.547225235915846</ele>
        <time>2026-09-08T11:01:45Z</time>
      </trkpt>
      <trkpt lat="32.052851865217555" lon="118.80465229245502">
        <ele>12.045192002273268</ele>
        <time>2026-09-08T11:02:00Z</time>
      </trkpt>
      <trkpt lat="32.05306598134104" lon="118.80469135033736">
        <ele>12.494380234695143</ele>
        <time>2026-09-08T11:02:09Z</time>
      </trkpt>
      <trkpt lat="32.05314199125495" lon="118.80468733539806">
        <ele>12.013486145950026</ele>
        <time>2026-09-08T11:02:12Z</time>
      </trkpt>
      <trkpt lat="32.053271888636786" lon="118.80461217434387">
        <ele>13.046614884353346</ele>
        <time>2026-09-08T11:02:18Z</time>
      </trkpt>
      <trkpt lat="32.053355675957846" lon="118.80447990441235">
        <ele>11.252511261916823</ele>
        <time>2026-09-08T11:02:24Z</time>
      </trkpt>
      <trkpt lat="32.053391421329685" lon="118.80432960347378">
        <ele>11.241940735793776</ele>
        <time>2026-09-08T11:02:30Z</time>
      </trkpt>
      <trkpt lat="32.053369040524395" lon="118.80411417952546">
        <ele>11.899867295242018</ele>
        <time>2026-09-08T11:02:39Z</time>
      </trkpt>
      <trkpt lat="32.05333194495739" lon="118.80406408397097">
        <ele>12.462672471023268</ele>
        <time>2026-09-08T11:02:42Z</time>
      </trkpt>
      <trkpt lat="32.05315964662334" lon="118.80391480513639">
        <ele>11.421616791701979</ele>
        <time>2026-09-08T11:02:51Z</time>
      </trkpt>
      <trkpt lat="32.05291141180558" lon="118.80381162446545">
        <ele>11.46124958894319</ele>
        <time>2026-09-08T11:03:03Z</time>
      </trkpt>
      <trkpt lat="32.05279434739708" lon="118.80378959178377">
        <ele>11.086047409988112</ele>
        <time>2026-09-08T11:03:09Z</time>
      </trkpt>
      <trkpt lat="32.0526672198061" lon="118.80373249095594">
        <ele>10.930152176833815</ele>
        <time>2026-09-08T11:03:15Z</time>
      </trkpt>
      <trkpt lat="32.05238604747667" lon="118.80366939250437">
        <ele>11.117755173659987</ele>
        <time>2026-09-08T11:03:31Z</time>
      </trkpt>
      <trkpt lat="32.05234399460391" lon="118.80364434706564">
        <ele>9.743771790481276</ele>
        <time>2026-09-08T11:03:34Z</time>
      </trkpt>
      <trkpt lat="32.05223394397181" lon="118.80362932760215">
        <ele>11.921006440139479</ele>
        <time>2026-09-08T11:03:37Z</time>
      </trkpt>
      <trkpt lat="32.05210296695422" lon="118.8036593987963">
        <ele>12.161452530837721</ele>
        <time>2026-09-08T11:03:43Z</time>
      </trkpt>
      <trkpt lat="32.05198003177113" lon="118.80371251464197">
        <ele>12.243363617873854</ele>
        <time>2026-09-08T11:03:46Z</time>
      </trkpt>
      <trkpt lat="32.051900238642006" lon="118.80384177663574">
        <ele>10.264300583816237</ele>
        <time>2026-09-08T11:03:52Z</time>
      </trkpt>
      <trkpt lat="32.051880478334304" lon="118.80398205513872">
        <ele>8.700074433303541</ele>
        <time>2026-09-08T11:03:58Z</time>
      </trkpt>
      <trkpt lat="32.051891795116155" lon="118.80416241031126">
        <ele>11.87873005769319</ele>
        <time>2026-09-08T11:04:04Z</time>
      </trkpt>
      <trkpt lat="32.05194306528852" lon="118.80431069888063">
        <ele>12.547225235915846</ele>
        <time>2026-09-08T11:04:10Z</time>
      </trkpt>
      <trkpt lat="32.0519861746353" lon="118.80436780796654">
        <ele>12.555152176833815</ele>
        <time>2026-09-08T11:04:13Z</time>
      </trkpt>
      <trkpt lat="32.052101312348384" lon="118.80443192437964">
        <ele>9.58523583314485</ele>
        <time>2026-09-08T11:04:19Z</time>
      </trkpt>
      <trkpt lat="32.05241157246969" lon="118.8045411123076">
        <ele>11.411046265578932</ele>
        <time>2026-09-08T11:04:34Z</time>
      </trkpt>
      <trkpt lat="32.05252565048198" lon="118.80457116142871">
        <ele>10.650071381545729</ele>
        <time>2026-09-08T11:04:40Z</time>
      </trkpt>
      <trkpt lat="32.05260264310428" lon="118.8045571265382">
        <ele>9.397633789992994</ele>
        <time>2026-09-08T11:04:43Z</time>
      </trkpt>
      <trkpt lat="32.05266772773068" lon="118.80459720004188">
        <ele>13.6622650613553</ele>
        <time>2026-09-08T11:04:47Z</time>
      </trkpt>
      <trkpt lat="32.052949962512" lon="118.80469536895288">
        <ele>10.211455582595534</ele>
        <time>2026-09-08T11:04:59Z</time>
      </trkpt>
      <trkpt lat="32.053078003320515" lon="118.80470237111173">
        <ele>11.588078736282057</ele>
        <time>2026-09-08T11:05:05Z</time>
      </trkpt>
      <trkpt lat="32.053152995460685" lon="118.80468833637586">
        <ele>9.627512215591139</ele>
        <time>2026-09-08T11:05:08Z</time>
      </trkpt>
      <trkpt lat="32.05328685865706" lon="118.80459313520569">
        <ele>14.005759476638502</ele>
        <time>2026-09-08T11:05:14Z</time>
      </trkpt>
      <trkpt lat="32.05336370752643" lon="118.80449693743121">
        <ele>11.847022294021315</ele>
        <time>2026-09-08T11:05:20Z</time>
      </trkpt>
      <trkpt lat="32.05340740214567" lon="118.80431657622566">
        <ele>4.271622895217604</ele>
        <time>2026-09-08T11:05:26Z</time>
      </trkpt>
      <trkpt lat="32.05340614311721" lon="118.80416828304215">
        <ele>12.253932236648268</ele>
        <time>2026-09-08T11:05:32Z</time>
      </trkpt>
      <trkpt lat="32.053383017441426" lon="118.80409914854779">
        <ele>11.429543732619948</ele>
        <time>2026-09-08T11:05:35Z</time>
      </trkpt>
      <trkpt lat="32.0533188373185" lon="118.80400396647343">
        <ele>7.814912079787916</ele>
        <time>2026-09-08T11:05:41Z</time>
      </trkpt>
      <trkpt lat="32.05317562228585" lon="118.80389877204777">
        <ele>10.222024201369948</ele>
        <time>2026-09-08T11:05:47Z</time>
      </trkpt>
      <trkpt lat="32.052889406902544" lon="118.80381162648764">
        <ele>11.035844086623854</ele>
        <time>2026-09-08T11:05:59Z</time>
      </trkpt>
      <trkpt lat="32.05253313247459" lon="118.80369943816534">
        <ele>12.108607529617018</ele>
        <time>2026-09-08T11:06:17Z</time>
      </trkpt>
      <trkpt lat="32.052245906635264" lon="118.80360628115874">
        <ele>11.10718464753694</ele>
        <time>2026-09-08T11:06:30Z</time>
      </trkpt>
      <trkpt lat="32.052034021185506" lon="118.8036994840323">
        <ele>11.284217118240065</ele>
        <time>2026-09-08T11:06:42Z</time>
      </trkpt>
      <trkpt lat="32.051984076194984" lon="118.80373756360173">
        <ele>11.389909028030104</ele>
        <time>2026-09-08T11:06:45Z</time>
      </trkpt>
      <trkpt lat="32.05191030188536" lon="118.80387684485255">
        <ele>11.46124958894319</ele>
        <time>2026-09-08T11:06:48Z</time>
      </trkpt>
      <trkpt lat="32.05188246482123" lon="118.8039740391368">
        <ele>10.8376743783719</ele>
        <time>2026-09-08T11:06:51Z</time>
      </trkpt>
      <trkpt lat="32.05188263588627" lon="118.80407223298057">
        <ele>11.807387589431471</ele>
        <time>2026-09-08T11:06:54Z</time>
      </trkpt>
      <trkpt lat="32.05194806640407" lon="118.8043106984211">
        <ele>10.618365525222487</ele>
        <time>2026-09-08T11:07:00Z</time>
      </trkpt>
      <trkpt lat="32.05205926095058" lon="118.80440788061361">
        <ele>11.638282059646315</ele>
        <time>2026-09-08T11:07:06Z</time>
      </trkpt>
      <trkpt lat="32.0521793560191" lon="118.8044469469822">
        <ele>9.648650406814284</ele>
        <time>2026-09-08T11:07:12Z</time>
      </trkpt>
      <trkpt lat="32.052387439194156" lon="118.80446796955192">
        <ele>12.055762528396315</ele>
        <time>2026-09-08T11:07:22Z</time>
      </trkpt>
      <trkpt lat="32.05263770526033" lon="118.80458818491431">
        <ele>11.619786499953932</ele>
        <time>2026-09-08T11:07:34Z</time>
      </trkpt>
      <trkpt lat="32.052934897751435" lon="118.8046603007328">
        <ele>10.6289341439969</ele>
        <time>2026-09-08T11:07:49Z</time>
      </trkpt>
      <trkpt lat="32.053048001901296" lon="118.80470537983557">
        <ele>11.004136322951979</ele>
        <time>2026-09-08T11:07:55Z</time>
      </trkpt>
      <trkpt lat="32.05322592574903" lon="118.80463923223965">
        <ele>9.751698731399244</ele>
        <time>2026-09-08T11:08:04Z</time>
      </trkpt>
      <trkpt lat="32.0533526787937" lon="118.80448190865889">
        <ele>11.004136322951979</ele>
        <time>2026-09-08T11:08:13Z</time>
      </trkpt>
      <trkpt lat="32.0534014515576" lon="118.80434563428469">
        <ele>8.845399140334791</ele>
        <time>2026-09-08T11:08:19Z</time>
      </trkpt>
      <trkpt lat="32.05339517911854" lon="118.80419032762573">
        <ele>11.3370640268094</ele>
        <time>2026-09-08T11:08:25Z</time>
      </trkpt>
      <trkpt lat="32.053349952459236" lon="118.80406608627395">
        <ele>9.772837876296705</ele>
        <time>2026-09-08T11:08:31Z</time>
      </trkpt>
      <trkpt lat="32.05331284470857" lon="118.8040089769137">
        <ele>11.429543732619948</ele>
        <time>2026-09-08T11:08:34Z</time>
      </trkpt>
      <trkpt lat="32.053206698954845" lon="118.80393884825112">
        <ele>11.786250351882643</ele>
        <time>2026-09-08T11:08:40Z</time>
      </trkpt>
      <trkpt lat="32.05301951604423" lon="118.80385770538516">
        <ele>11.252511261916823</ele>
        <time>2026-09-08T11:08:49Z</time>
      </trkpt>
      <trkpt lat="32.05295041701203" lon="118.80380961693159">
        <ele>10.264300583816237</ele>
        <time>2026-09-08T11:08:53Z</time>
      </trkpt>
      <trkpt lat="32.052723307181736" lon="118.80377557067301">
        <ele>10.700274704909987</ele>
        <time>2026-09-08T11:09:05Z</time>
      </trkpt>
      <trkpt lat="32.05243104532855" lon="118.80366237456316">
        <ele>11.02527546784944</ele>
        <time>2026-09-08T11:09:20Z</time>
      </trkpt>
      <trkpt lat="32.05217692951842" lon="118.80362833087003">
        <ele>10.77425885102815</ele>
        <time>2026-09-08T11:09:32Z</time>
      </trkpt>
      <trkpt lat="32.05199301203868" lon="118.80369948780088">
        <ele>8.636658905959791</ele>
        <time>2026-09-08T11:09:41Z</time>
      </trkpt>
    </trkseg>
  </trk>
</gpx>